<?xml version="1.0" encoding="UTF-8"?><kml xmlns="http://www.opengis.net/kml/2.2"><Document><Placemark><name>Zona de estudio propuesta</name><Style><LineStyle><color>ff0000ff</color><width>3</width></LineStyle><PolyStyle><fill>0</fill></PolyStyle></Style><Polygon><outerBoundaryIs><LinearRing><coordinates>-61.3390054217265,-38.96681636962278,0 -61.33726408324657,-38.96454883572882,0 -61.33458618509138,-38.96222211379699,0 -61.330615255188654,-38.96056527835375,0 -61.32696867400246,-38.96010972162293,0 -61.32441680976307,-38.95921782004497,0 -61.32219823553155,-38.95887334120446,0 -61.317241617216276,-38.95887335501747,0 -61.31502305087329,-38.959217845259076,0 -61.31293315912876,-38.95989361087738,0 -61.31021310897972,-38.96146836577501,0 -61.30769971137848,-38.96391148138364,0 -61.3067386087079,-38.96529484918413,0 -61.30497251103197,-38.96362437249628,0 -61.303223749319805,-38.96250409872057,0 -61.29800632281902,-38.960565353398685,0 -61.29465668974605,-38.96017753030757,0 -61.28863308589026,-38.96035059887813,0 -61.28544469645622,-38.96124113695812,0 -61.28008362404199,-38.96405252822972,0 -61.27730536569455,-38.96463613724403,0 -61.275310220148626,-38.96546855357315,0 -61.27356137587367,-38.966588823077565,0 -61.2712649270942,-38.96880351462726,0 -61.26626471941996,-38.96897451013869,0 -61.26210453940186,-38.97031951220692,0 -61.25959493518003,-38.972094791419025,0 -61.25699011766714,-38.97491062349964,0 -61.25585448201834,-38.97708115484745,0 -61.25537157046254,-38.97946673522095,0 -61.25007639977196,-38.98004370311847,0 -61.24834947000318,-38.97866152987311,0 -61.24592904458415,-38.977410955155534,0 -61.24161961917802,-38.97639074568315,0 -61.23375135682541,-38.97634740536284,0 -61.22938616202906,-38.97666027276047,0 -61.22716709750405,-38.97700474876927,0 -61.22445359104989,-38.97788157357556,0 -61.22032954738481,-38.97692979804775,0 -61.2105747709537,-38.976347473964516,0 -61.20021763034074,-38.97781331035918,0 -61.19509818592799,-38.979850960758576,0 -61.191926344883896,-38.97989432602569,0 -61.188307771179126,-38.98065949595514,0 -61.18379923659298,-38.980832500728184,0 -61.181300952253565,-38.98146797178555,0 -61.17413967876864,-38.98178084442199,0 -61.17085400493247,-38.9824231101462,0 -61.16710923241501,-38.98437572594784,0 -61.164325907273515,-38.98708827055672,0 -61.16325901102805,-38.98864564411948,0 -61.16243552334806,-38.991210004380854,0 -61.1626008897774,-38.996545431213626,0 -61.163741839861935,-38.999034657817944,0 -61.1647605597179,-39.000136135409306,0 -61.164760559715226,-38.99990890240697,0 -61.166647021811876,-38.99990890240698,0 -61.166647021811876,-39.000178396992204,0 -61.18146922399984,-39.0001783969922,0 -61.18146922399984,-38.99990890240698,0 -61.18362518068173,-38.99990890240698,0 -61.18362518068173,-38.99963940782173,0 -61.1841641698522,-38.99963940782173,0 -61.1841641698522,-38.99990890240697,0 -61.184433664437435,-38.999908902406965,0 -61.184433664437435,-38.99963940782173,0 -61.18605063194885,-38.99963940782173,0 -61.18605063194885,-38.99936991323649,0 -61.188476083215974,-38.99936991323649,0 -61.188476083215974,-38.99910041865125,0 -61.191440523653576,-38.999100418651246,0 -61.191440523653576,-38.99883092406602,0 -61.19251850199452,-38.99883092406603,0 -61.19251850199452,-38.99856142948078,0 -61.19413546950594,-38.99856142948079,0 -61.19413546950594,-38.99829193489554,0 -61.195482942432115,-38.99829193489554,0 -61.195482942432115,-38.99802244031031,0 -61.19602193160259,-38.9980224403103,0 -61.19602193160259,-38.998291934895555,0 -61.196830415358285,-38.99829193489554,0 -61.196830415358285,-38.99802244031031,0 -61.1984473828697,-38.998022440310315,0 -61.1984473828697,-38.99775294572507,0 -61.20383727457441,-38.997752945725075,0 -61.20383727457441,-38.99748345113984,0 -61.20626272584155,-38.99748345113986,0 -61.20626272584155,-38.9972139565546,0 -61.20949666086438,-38.99721395655462,0 -61.20949666086438,-38.99694446196936,0 -61.211383122961024,-38.99694446196936,0 -61.211383122961024,-38.99667496738413,0 -61.214078068813386,-38.99667496738414,0 -61.214078068813386,-38.996405472798905,0 -61.21731200383621,-38.9964054727989,0 -61.21731200383621,-38.99613597821367,0 -61.2186594767624,-38.99613597821367,0 -61.2186594767624,-38.99586648362843,0 -61.22054593885905,-38.99586648362843,0 -61.22054593885905,-38.99559698904319,0 -61.22377987388188,-38.99532749445795,0 -61.22377987388188,-38.995057999872714,0 -61.225666335978524,-38.99505799987272,0 -61.225666335978524,-38.99478850528748,0 -61.22916976558659,-38.99478850528748,0 -61.22916976558659,-38.99451901070226,0 -61.23105622768323,-38.994519010702255,0 -61.23105622768323,-38.994249516117,0 -61.23213420602418,-38.994249516117016,0 -61.23213420602418,-38.994519010702255,0 -61.232403700609424,-38.99451901070225,0 -61.232403700609424,-38.994249516117016,0 -61.23617662480273,-38.99424951611701,0 -61.23617662480273,-38.99398002153178,0 -61.23806308689937,-38.993980021531776,0 -61.23806308689937,-38.99424951611701,0 -61.238602076069846,-38.994249516117,0 -61.238602076069846,-38.99398002153178,0 -61.24102752733697,-38.99398002153179,0 -61.24102752733697,-38.993710526946536,0 -61.24533944070073,-38.99371052694654,0 -61.24533944070073,-38.99344103236132,0 -61.249381859479286,-38.99344103236132,0 -61.249381859479286,-38.993171537776064,0 -61.25369377284305,-38.99317153777608,0 -61.25369377284305,-38.992902043190846,0 -61.25531074035447,-38.992902043190846,0 -61.25531074035447,-38.9926325486056,0 -61.25746669703636,-38.992902043190846,0 -61.25746669703636,-38.99263254860559,0 -61.259353159133006,-38.99263254860559,0 -61.259353159133006,-38.992363054020366,0 -61.261509115814896,-38.992363054020366,0 -61.261509115814896,-38.99209355943512,0 -61.2644735562525,-38.992093559435126,0 -61.2644735562525,-38.991824064849894,0 -61.26824648044579,-38.99155457026466,0 -61.26824648044579,-38.99128507567942,0 -61.271210920883384,-38.99128507567943,0 -61.271210920883384,-38.99101558109418,0 -61.273097382980026,-38.99101558109419,0 -61.273097382980026,-38.990746086508935,0 -61.27498384507669,-38.990746086508956,0 -61.27498384507669,-38.991015581094196,0 -61.275253339661916,-38.99101558109419,0 -61.275253339661916,-38.99074608650895,0 -61.27875676927,-38.99074608650895,0 -61.27875676927,-38.990476591923716,0 -61.28468565014518,-38.99047659192371,0 -61.28468565014518,-38.990207097338484,0 -61.29223149853179,-38.99020709733848,0 -61.29223149853179,-38.98993760275324,0 -61.29357897145797,-38.989937602753244,0 -61.29357897145797,-38.990207097338484,0 -61.29411796062844,-38.99020709733848,0 -61.29411796062844,-38.989937602753244,0 -61.30570622779357,-38.98993760275325,0 -61.30570622779357,-38.99020709733847,0 -61.30840117364593,-38.990207097338484,0 -61.30840117364593,-38.989937602753244,0 -61.31109611949829,-38.989937602753244,0 -61.31109611949829,-38.990207097338484,0 -61.31325207618018,-38.990207097338484,0 -61.31325207618018,-38.989937602753244,0 -61.31406055993589,-38.989937602753244,0 -61.31406055993589,-38.990207097338484,0 -61.31945045164061,-38.990207097338484,0 -61.31945045164061,-38.98993760275325,0 -61.325109837930555,-38.989937602753244,0 -61.325109837930555,-38.990207097338484,0 -61.32591832168625,-38.990207097338484,0 -61.32591832168625,-38.989937602753244,0 -61.33400315924334,-38.98993760275324,0 -61.33400315924334,-38.989668108168004,0 -61.33858456719235,-38.989668108168004,0 -61.33858456719235,-38.98939861358277,0 -61.35960514484074,-38.989398613582765,0 -61.35960514484074,-38.989129118997525,0 -61.362839079863576,-38.98912911899754,0 -61.362839079863576,-38.989398613582765,0 -61.366881498642115,-38.98939861358277,0 -61.366881498642115,-38.98912911899754,0 -61.373454476521715,-38.98912919957112,0 -61.37354929048934,-38.98886552318161,0 -61.37199704871318,-38.96968671059063,0 -61.371319039146876,-38.96872600916565,0 -61.36986749001692,-38.968067976395005,0 -61.36636309906324,-38.96834223012007,0 -61.36296410643878,-38.968240529344904,0 -61.358930774745545,-38.951333593394224,0 -61.35864750892556,-38.95086088904382,0 -61.35825767191457,-38.95086088789404,0 -61.35825767191457,-38.9505913933088,0 -61.35637120981791,-38.9505913933088,0 -61.35637120981791,-38.950321898723566,0 -61.35502373689174,-38.95032189872357,0 -61.35502373689174,-38.950591393308805,0 -61.35394575855079,-38.9505913933088,0 -61.35394575855079,-38.95032189872356,0 -61.35340676938032,-38.950321898723566,0 -61.35340676938032,-38.950052404138326,0 -61.352328791039376,-38.94978290955309,0 -61.352308702736664,-38.94974273324097,0 -61.35168790053169,-38.95027975722498,0 -61.34274898966448,-38.97283186717984,0 -61.34023255442063,-38.97028586492562,0 -61.3390054217265,-38.96681636962278,0</coordinates></LinearRing></outerBoundaryIs></Polygon></Placemark><Placemark><name>Monte Hermoso (Georef)</name><Point><coordinates>-61.2909,-38.9867,0</coordinates></Point></Placemark><Placemark><name>Balneario Sauce Grande (Georef)</name><Point><coordinates>-61.208,-38.9938,0</coordinates></Point></Placemark><Placemark><name>Las Lomas</name><Point><coordinates>-61.2936,-38.9764,0</coordinates></Point></Placemark><Placemark><name>Las Dunas</name><Point><coordinates>-61.3282,-38.9839,0</coordinates></Point></Placemark><Placemark><name>Monte Hermoso del Este</name><Point><coordinates>-61.2753,-38.9848,0</coordinates></Point></Placemark><Placemark><name>Aldea del Este</name><Point><coordinates>-61.2801,-38.9848,0</coordinates></Point></Placemark><Placemark><name>Parque Esteban Dufaur</name><Point><coordinates>-61.3148,-38.9833,0</coordinates></Point></Placemark><Placemark><name>Camping Americano</name><Point><coordinates>-61.3506,-38.9871,0</coordinates></Point></Placemark><Placemark><name>Monte Hermoso Golf Club</name><Point><coordinates>-61.2742,-38.9758,0</coordinates></Point></Placemark></Document></kml>