{
"type": "FeatureCollection",
"name": "zona_urbana",
"crs": { "type": "name", "properties": { "name": "urn:ogc:def:crs:OGC:1.3:CRS84" } },
"features": [
{ "type": "Feature", "properties": { "nombre": "Zona urbana de Monte Hermoso y Balneario Sauce Grande", "margen_m": 1000, "fuente": "MapBiomas Argentina C3 clase 24 (2025) o Dynamic World built > 0.35 (2024-2026), cierre 150 m, manchas > 30 ha, recortada al partido (IGN/Georef) y sin el mar (Dynamic World water > 0.5); más la parcela 1050c de Los Bosques (buffer de 250 m)", "creada": "2026-10-10", "area_km2": 46.519540890763857 }, "geometry": { "type": "Polygon", "coordinates": [ [ [ -61.339005421726498, -38.966816369622777 ], [ -61.337264083246573, -38.96454883572882 ], [ -61.334586185091382, -38.96222211379699 ], [ -61.330615255188654, -38.960565278353748 ], [ -61.326968674002458, -38.960109721622928 ], [ -61.324416809763072, -38.959217820044969 ], [ -61.322198235531552, -38.958873341204459 ], [ -61.317241617216276, -38.958873355017467 ], [ -61.315023050873293, -38.959217845259076 ], [ -61.312933159128761, -38.95989361087738 ], [ -61.310213108979717, -38.961468365775012 ], [ -61.307699711378483, -38.96391148138364 ], [ -61.306738608707903, -38.965294849184133 ], [ -61.30497251103197, -38.963624372496277 ], [ -61.303223749319805, -38.962504098720572 ], [ -61.29800632281902, -38.960565353398685 ], [ -61.294656689746049, -38.960177530307568 ], [ -61.288633085890261, -38.960350598878129 ], [ -61.285444696456217, -38.961241136958122 ], [ -61.280083624041993, -38.964052528229722 ], [ -61.277305365694552, -38.964636137244028 ], [ -61.275310220148626, -38.965468553573153 ], [ -61.273561375873669, -38.966588823077565 ], [ -61.271264927094201, -38.968803514627261 ], [ -61.266264719419958, -38.968974510138693 ], [ -61.262104539401861, -38.97031951220692 ], [ -61.259594935180033, -38.972094791419025 ], [ -61.256990117667137, -38.974910623499639 ], [ -61.255854482018343, -38.977081154847447 ], [ -61.255371570462543, -38.979466735220953 ], [ -61.250076399771963, -38.980043703118469 ], [ -61.248349470003177, -38.978661529873108 ], [ -61.245929044584152, -38.977410955155534 ], [ -61.241619619178017, -38.976390745683148 ], [ -61.233751356825408, -38.976347405362837 ], [ -61.229386162029058, -38.976660272760469 ], [ -61.227167097504051, -38.977004748769268 ], [ -61.224453591049887, -38.977881573575559 ], [ -61.220329547384807, -38.976929798047749 ], [ -61.210574770953698, -38.976347473964516 ], [ -61.200217630340738, -38.977813310359181 ], [ -61.195098185927989, -38.979850960758576 ], [ -61.191926344883896, -38.979894326025693 ], [ -61.188307771179126, -38.980659495955138 ], [ -61.183799236592982, -38.980832500728184 ], [ -61.181300952253565, -38.981467971785548 ], [ -61.17413967876864, -38.981780844421991 ], [ -61.170854004932472, -38.9824231101462 ], [ -61.167109232415008, -38.984375725947842 ], [ -61.164325907273515, -38.987088270556718 ], [ -61.163259011028053, -38.98864564411948 ], [ -61.162435523348059, -38.991210004380854 ], [ -61.162600889777401, -38.996545431213626 ], [ -61.163741839861935, -38.999034657817944 ], [ -61.164760559717898, -39.000136135409306 ], [ -61.164760559715226, -38.999908902406972 ], [ -61.166647021811876, -38.999908902406979 ], [ -61.166647021811876, -39.000178396992204 ], [ -61.181469223999841, -39.000178396992197 ], [ -61.181469223999841, -38.999908902406979 ], [ -61.18362518068173, -38.999908902406979 ], [ -61.18362518068173, -38.999639407821732 ], [ -61.184164169852203, -38.999639407821732 ], [ -61.184164169852203, -38.999908902406972 ], [ -61.184433664437435, -38.999908902406965 ], [ -61.184433664437435, -38.999639407821732 ], [ -61.186050631948852, -38.999639407821732 ], [ -61.186050631948852, -38.999369913236492 ], [ -61.188476083215974, -38.999369913236492 ], [ -61.188476083215974, -38.999100418651253 ], [ -61.191440523653576, -38.999100418651246 ], [ -61.191440523653576, -38.99883092406602 ], [ -61.19251850199452, -38.998830924066027 ], [ -61.19251850199452, -38.99856142948078 ], [ -61.194135469505937, -38.998561429480787 ], [ -61.194135469505937, -38.998291934895541 ], [ -61.195482942432115, -38.998291934895541 ], [ -61.195482942432115, -38.998022440310308 ], [ -61.196021931602587, -38.998022440310301 ], [ -61.196021931602587, -38.998291934895555 ], [ -61.196830415358285, -38.998291934895541 ], [ -61.196830415358285, -38.998022440310308 ], [ -61.198447382869702, -38.998022440310315 ], [ -61.198447382869702, -38.997752945725068 ], [ -61.203837274574411, -38.997752945725075 ], [ -61.203837274574411, -38.997483451139843 ], [ -61.206262725841547, -38.997483451139857 ], [ -61.206262725841547, -38.997213956554603 ], [ -61.209496660864382, -38.997213956554617 ], [ -61.209496660864382, -38.996944461969363 ], [ -61.211383122961024, -38.996944461969363 ], [ -61.211383122961024, -38.996674967384131 ], [ -61.214078068813386, -38.996674967384138 ], [ -61.214078068813386, -38.996405472798905 ], [ -61.217312003836213, -38.996405472798898 ], [ -61.217312003836213, -38.996135978213673 ], [ -61.218659476762397, -38.996135978213673 ], [ -61.218659476762397, -38.995866483628433 ], [ -61.220545938859047, -38.995866483628433 ], [ -61.220545938859047, -38.995596989043193 ], [ -61.223779873881881, -38.995327494457953 ], [ -61.223779873881881, -38.995057999872714 ], [ -61.225666335978524, -38.995057999872721 ], [ -61.225666335978524, -38.994788505287481 ], [ -61.22916976558659, -38.994788505287481 ], [ -61.22916976558659, -38.994519010702263 ], [ -61.231056227683233, -38.994519010702255 ], [ -61.231056227683233, -38.994249516117002 ], [ -61.232134206024178, -38.994249516117016 ], [ -61.232134206024178, -38.994519010702255 ], [ -61.232403700609424, -38.994519010702248 ], [ -61.232403700609424, -38.994249516117016 ], [ -61.236176624802731, -38.994249516117009 ], [ -61.236176624802731, -38.993980021531783 ], [ -61.238063086899373, -38.993980021531776 ], [ -61.238063086899373, -38.994249516117009 ], [ -61.238602076069846, -38.994249516117002 ], [ -61.238602076069846, -38.993980021531783 ], [ -61.241027527336968, -38.99398002153179 ], [ -61.241027527336968, -38.993710526946536 ], [ -61.245339440700732, -38.993710526946543 ], [ -61.245339440700732, -38.993441032361318 ], [ -61.249381859479286, -38.993441032361318 ], [ -61.249381859479286, -38.993171537776064 ], [ -61.25369377284305, -38.993171537776078 ], [ -61.25369377284305, -38.992902043190846 ], [ -61.255310740354467, -38.992902043190846 ], [ -61.255310740354467, -38.992632548605599 ], [ -61.257466697036357, -38.992902043190846 ], [ -61.257466697036357, -38.992632548605592 ], [ -61.259353159133006, -38.992632548605592 ], [ -61.259353159133006, -38.992363054020366 ], [ -61.261509115814896, -38.992363054020366 ], [ -61.261509115814896, -38.992093559435119 ], [ -61.264473556252497, -38.992093559435126 ], [ -61.264473556252497, -38.991824064849894 ], [ -61.268246480445789, -38.991554570264661 ], [ -61.268246480445789, -38.991285075679421 ], [ -61.271210920883384, -38.991285075679428 ], [ -61.271210920883384, -38.991015581094182 ], [ -61.273097382980026, -38.991015581094189 ], [ -61.273097382980026, -38.990746086508935 ], [ -61.27498384507669, -38.990746086508956 ], [ -61.27498384507669, -38.991015581094196 ], [ -61.275253339661916, -38.991015581094189 ], [ -61.275253339661916, -38.990746086508949 ], [ -61.278756769269997, -38.990746086508949 ], [ -61.278756769269997, -38.990476591923716 ], [ -61.284685650145178, -38.990476591923709 ], [ -61.284685650145178, -38.990207097338484 ], [ -61.292231498531791, -38.990207097338477 ], [ -61.292231498531791, -38.989937602753237 ], [ -61.293578971457968, -38.989937602753244 ], [ -61.293578971457968, -38.990207097338484 ], [ -61.294117960628441, -38.990207097338477 ], [ -61.294117960628441, -38.989937602753244 ], [ -61.305706227793571, -38.989937602753251 ], [ -61.305706227793571, -38.99020709733847 ], [ -61.308401173645933, -38.990207097338484 ], [ -61.308401173645933, -38.989937602753244 ], [ -61.311096119498288, -38.989937602753244 ], [ -61.311096119498288, -38.990207097338484 ], [ -61.313252076180177, -38.990207097338484 ], [ -61.313252076180177, -38.989937602753244 ], [ -61.314060559935889, -38.989937602753244 ], [ -61.314060559935889, -38.990207097338484 ], [ -61.319450451640613, -38.990207097338484 ], [ -61.319450451640613, -38.989937602753251 ], [ -61.325109837930555, -38.989937602753244 ], [ -61.325109837930555, -38.990207097338484 ], [ -61.325918321686252, -38.990207097338484 ], [ -61.325918321686252, -38.989937602753244 ], [ -61.334003159243338, -38.989937602753237 ], [ -61.334003159243338, -38.989668108168004 ], [ -61.338584567192349, -38.989668108168004 ], [ -61.338584567192349, -38.989398613582772 ], [ -61.359605144840742, -38.989398613582765 ], [ -61.359605144840742, -38.989129118997525 ], [ -61.362839079863576, -38.989129118997539 ], [ -61.362839079863576, -38.989398613582765 ], [ -61.366881498642115, -38.989398613582772 ], [ -61.366881498642115, -38.989129118997539 ], [ -61.373454476521715, -38.989129199571117 ], [ -61.373549290489343, -38.988865523181609 ], [ -61.371997048713183, -38.969686710590629 ], [ -61.371319039146876, -38.96872600916565 ], [ -61.369867490016922, -38.968067976395005 ], [ -61.366363099063243, -38.968342230120072 ], [ -61.362964106438781, -38.968240529344904 ], [ -61.358930774745545, -38.951333593394224 ], [ -61.358647508925557, -38.950860889043817 ], [ -61.358257671914572, -38.950860887894038 ], [ -61.358257671914572, -38.950591393308798 ], [ -61.356371209817908, -38.950591393308798 ], [ -61.356371209817908, -38.950321898723566 ], [ -61.355023736891738, -38.950321898723573 ], [ -61.355023736891738, -38.950591393308805 ], [ -61.353945758550793, -38.950591393308798 ], [ -61.353945758550793, -38.950321898723558 ], [ -61.353406769380321, -38.950321898723566 ], [ -61.353406769380321, -38.950052404138326 ], [ -61.352328791039376, -38.949782909553093 ], [ -61.352308702736664, -38.949742733240967 ], [ -61.351687900531687, -38.950279757224983 ], [ -61.342748989664479, -38.972831867179842 ], [ -61.340232554420631, -38.970285864925621 ], [ -61.339005421726498, -38.966816369622777 ] ] ] } }
]
}
