{
"type": "FeatureCollection",
"name": "desarrollos_poligonos",
"crs": { "type": "name", "properties": { "name": "urn:ogc:def:crs:OGC:1.3:CRS84" } },
"features": [
{ "type": "Feature", "properties": { "name": "Monte Hermoso del Este (zona)", "source_title": "Urbanización Monte Hermoso del Este, mapa público (Google My Maps)", "source_url": "https://www.google.com/maps/d/viewer?mid=1R3oPGHZZi7LAdVFMrDoY-DIc5OnEQL8", "geometry_source": "polígono publicado por el desarrollador" }, "geometry": { "type": "Polygon", "coordinates": [ [ [ -61.2800403, -38.9876025, 0.0 ], [ -61.2800749, -38.9883274, 0.0 ], [ -61.2800408, -38.9887227, 0.0 ], [ -61.2795935, -38.9887344, 0.0 ], [ -61.279437, -38.9885464, 0.0 ], [ -61.2791006, -38.988473, 0.0 ], [ -61.2786206, -38.988438, 0.0 ], [ -61.2783648, -38.9884463, 0.0 ], [ -61.278009, -38.9884843, 0.0 ], [ -61.2776371, -38.9884989, 0.0 ], [ -61.2755879, -38.9886478, 0.0 ], [ -61.2729326, -38.98898, 0.0 ], [ -61.2724806, -38.9890545, 0.0 ], [ -61.2720233, -38.9890957, 0.0 ], [ -61.2715419, -38.9891452, 0.0 ], [ -61.2712823, -38.9891647, 0.0 ], [ -61.2710792, -38.9891509, 0.0 ], [ -61.2703943, -38.9891095, 0.0 ], [ -61.2696987, -38.9891514, 0.0 ], [ -61.2689047, -38.9892097, 0.0 ], [ -61.2686613, -38.989242, 0.0 ], [ -61.268434, -38.9893117, 0.0 ], [ -61.26822, -38.989519, 0.0 ], [ -61.2680862, -38.9896497, 0.0 ], [ -61.2680032, -38.9897109, 0.0 ], [ -61.2678558, -38.9897867, 0.0 ], [ -61.2675737, -38.9896307, 0.0 ], [ -61.2673528, -38.9894229, 0.0 ], [ -61.2672262, -38.98932, 0.0 ], [ -61.2670675, -38.9892672, 0.0 ], [ -61.2668267, -38.9892772, 0.0 ], [ -61.2663254, -38.9895302, 0.0 ], [ -61.2660908, -38.989663, 0.0 ], [ -61.265936, -38.9897294, 0.0 ], [ -61.2657866, -38.9897854, 0.0 ], [ -61.2647332, -38.9900448, 0.0 ], [ -61.2644617, -38.9902706, 0.0 ], [ -61.2641044, -38.9908884, 0.0 ], [ -61.2611863, -38.9913379, 0.0 ], [ -61.2609282, -38.9908433, 0.0 ], [ -61.2605842, -38.9901484, 0.0 ], [ -61.2594039, -38.9905095, 0.0 ], [ -61.2587815, -38.9907371, 0.0 ], [ -61.2586741, -38.9917444, 0.0 ], [ -61.2575582, -38.9916843, 0.0 ], [ -61.2558838, -38.9916107, 0.0 ], [ -61.2552393, -38.9915903, 0.0 ], [ -61.2552386, -38.9908777, 0.0 ], [ -61.2542026, -38.9909855, 0.0 ], [ -61.2542104, -38.9915314, 0.0 ], [ -61.2527229, -38.9916292, 0.0 ], [ -61.2512355, -38.9917604, 0.0 ], [ -61.2472743, -38.9921114, 0.0 ], [ -61.2433345, -38.9924789, 0.0 ], [ -61.2414653, -38.9926546, 0.0 ], [ -61.2404491, -38.9927177, 0.0 ], [ -61.2397208, -38.9927489, 0.0 ], [ -61.2393487, -38.9927749, 0.0 ], [ -61.2390607, -38.9927838, 0.0 ], [ -61.2390302, -38.9926842, 0.0 ], [ -61.238947, -38.9911541, 0.0 ], [ -61.2390007, -38.9909956, 0.0 ], [ -61.2393629, -38.9904076, 0.0 ], [ -61.239607, -38.9898197, 0.0 ], [ -61.2397463, -38.9893696, 0.0 ], [ -61.2415031, -38.9846579, 0.0 ], [ -61.2422085, -38.9826647, 0.0 ], [ -61.2423432, -38.9822436, 0.0 ], [ -61.2426497, -38.9815555, 0.0 ], [ -61.2429193, -38.9812802, 0.0 ], [ -61.2432532, -38.9811217, 0.0 ], [ -61.243512, -38.9809966, 0.0 ], [ -61.2441331, -38.9808999, 0.0 ], [ -61.2450545, -38.9809532, 0.0 ], [ -61.2465755, -38.9809598, 0.0 ], [ -61.2481502, -38.9808747, 0.0 ], [ -61.2497355, -38.9808187, 0.0 ], [ -61.251571, -38.9808949, 0.0 ], [ -61.2552364, -38.9806847, 0.0 ], [ -61.2560821, -38.9806442, 0.0 ], [ -61.2569493, -38.9806037, 0.0 ], [ -61.2585495, -38.9805852, 0.0 ], [ -61.2605997, -38.9807907, 0.0 ], [ -61.2632803, -38.9805539, 0.0 ], [ -61.2659555, -38.9803504, 0.0 ], [ -61.2679927, -38.9803873, 0.0 ], [ -61.2683327, -38.9804057, 0.0 ], [ -61.2687264, -38.9803907, 0.0 ], [ -61.2690235, -38.9804008, 0.0 ], [ -61.2693528, -38.9803692, 0.0 ], [ -61.2695516, -38.980387, 0.0 ], [ -61.2696963, -38.9804248, 0.0 ], [ -61.2706912, -38.9804478, 0.0 ], [ -61.271054, -38.9804682, 0.0 ], [ -61.2714651, -38.9804719, 0.0 ], [ -61.2720397, -38.980411, 0.0 ], [ -61.2729761, -38.9803554, 0.0 ], [ -61.2734953, -38.9803631, 0.0 ], [ -61.2740145, -38.98035, 0.0 ], [ -61.2746501, -38.9803351, 0.0 ], [ -61.2754897, -38.9802744, 0.0 ], [ -61.2758812, -38.9803136, 0.0 ], [ -61.2763425, -38.9802792, 0.0 ], [ -61.2777746, -38.9801876, 0.0 ], [ -61.278472, -38.9801835, 0.0 ], [ -61.278944, -38.9801752, 0.0 ], [ -61.2791212, -38.9801751, 0.0 ], [ -61.2797327, -38.9801209, 0.0 ], [ -61.2800223, -38.9801334, 0.0 ], [ -61.280312, -38.9800876, 0.0 ], [ -61.280709, -38.9800792, 0.0 ], [ -61.2815029, -38.9802543, 0.0 ], [ -61.2835199, -38.9801793, 0.0 ], [ -61.2835692, -38.9810498, 0.0 ], [ -61.2835857, -38.9814976, 0.0 ], [ -61.2835889, -38.9819371, 0.0 ], [ -61.2835959, -38.982224, 0.0 ], [ -61.2836001, -38.9825173, 0.0 ], [ -61.2836139, -38.983135, 0.0 ], [ -61.2837114, -38.9844225, 0.0 ], [ -61.2839143, -38.9855028, 0.0 ], [ -61.2839756, -38.9861377, 0.0 ], [ -61.2840046, -38.9867018, 0.0 ], [ -61.2839134, -38.9867059, 0.0 ], [ -61.2829371, -38.9867497, 0.0 ], [ -61.2824382, -38.9867758, 0.0 ], [ -61.2821888, -38.986793, 0.0 ], [ -61.2820466, -38.9868019, 0.0 ], [ -61.2819608, -38.9867852, 0.0 ], [ -61.2809684, -38.9867164, 0.0 ], [ -61.2804722, -38.986682, 0.0 ], [ -61.2802107, -38.9866606, 0.0 ], [ -61.2800826, -38.9866541, 0.0 ], [ -61.2799867, -38.9866518, 0.0 ], [ -61.2800403, -38.9876025, 0.0 ] ] ] } },
{ "type": "Feature", "properties": { "name": "Frente Marino (Monte Hermoso del Este)", "source_title": "Urbanización Monte Hermoso del Este, mapa público (Google My Maps)", "source_url": "https://www.google.com/maps/d/viewer?mid=1R3oPGHZZi7LAdVFMrDoY-DIc5OnEQL8", "geometry_source": "polígono publicado por el desarrollador" }, "geometry": { "type": "Polygon", "coordinates": [ [ [ -61.2710487, -38.9891431, 0.0 ], [ -61.2709392, -38.9886539, 0.0 ], [ -61.2708351, -38.9881731, 0.0 ], [ -61.270145, -38.9862692, 0.0 ], [ -61.2698921, -38.9859016, 0.0 ], [ -61.2697678, -38.985534, 0.0 ], [ -61.2695041, -38.9849746, 0.0 ], [ -61.269383, -38.9848283, 0.0 ], [ -61.2724747, -38.9847723, 0.0 ], [ -61.2744035, -38.9847022, 0.0 ], [ -61.2763322, -38.9846153, 0.0 ], [ -61.2764087, -38.9848238, 0.0 ], [ -61.2764717, -38.9851324, 0.0 ], [ -61.2770173, -38.985692, 0.0 ], [ -61.2771353, -38.9877602, 0.0 ], [ -61.2771185, -38.9885186, 0.0 ], [ -61.2757614, -38.9886295, 0.0 ], [ -61.2738857, -38.9888475, 0.0 ], [ -61.2731834, -38.9889551, 0.0 ], [ -61.2725025, -38.9890544, 0.0 ], [ -61.2718056, -38.9891183, 0.0 ], [ -61.2714545, -38.9891544, 0.0 ], [ -61.2712823, -38.9891647, 0.0 ], [ -61.2712069, -38.9891658, 0.0 ], [ -61.2711298, -38.989152, 0.0 ], [ -61.2710487, -38.9891431, 0.0 ] ] ] } },
{ "type": "Feature", "properties": { "name": "Aldea del Este (Monte Hermoso del Este)", "source_title": "Urbanización Monte Hermoso del Este, mapa público (Google My Maps)", "source_url": "https://www.google.com/maps/d/viewer?mid=1R3oPGHZZi7LAdVFMrDoY-DIc5OnEQL8", "geometry_source": "polígono publicado por el desarrollador" }, "geometry": { "type": "Polygon", "coordinates": [ [ [ -61.2800082, -38.9872058, 0.0 ], [ -61.2800574, -38.9883829, 0.0 ], [ -61.2800233, -38.9887365, 0.0 ], [ -61.279576, -38.9887482, 0.0 ], [ -61.2794302, -38.9885539, 0.0 ], [ -61.2788606, -38.9884346, 0.0 ], [ -61.2786138, -38.9884455, 0.0 ], [ -61.2779915, -38.9884981, 0.0 ], [ -61.2771117, -38.9885449, 0.0 ], [ -61.277134, -38.9879391, 0.0 ], [ -61.27714, -38.9878445, 0.0 ], [ -61.2771362, -38.9871441, 0.0 ], [ -61.2770105, -38.9857183, 0.0 ], [ -61.2787124, -38.9856349, 0.0 ], [ -61.2798349, -38.9855932, 0.0 ], [ -61.2798436, -38.985846, 0.0 ], [ -61.2798738, -38.9860947, 0.0 ], [ -61.2799637, -38.9866169, 0.0 ], [ -61.2800082, -38.9872058, 0.0 ] ] ] } },
{ "type": "Feature", "properties": { "name": "El Viejo Vivero (Monte Hermoso del Este)", "source_title": "Urbanización Monte Hermoso del Este, mapa público (Google My Maps)", "source_url": "https://www.google.com/maps/d/viewer?mid=1R3oPGHZZi7LAdVFMrDoY-DIc5OnEQL8", "geometry_source": "polígono publicado por el desarrollador" }, "geometry": { "type": "Polygon", "coordinates": [ [ [ -61.2820466, -38.9868019, 0.0 ], [ -61.2799867, -38.9866518, 0.0 ], [ -61.2798954, -38.9861031, 0.0 ], [ -61.2798524, -38.9855711, 0.0 ], [ -61.2770629, -38.9857045, 0.0 ], [ -61.2764824, -38.9851366, 0.0 ], [ -61.2764073, -38.9848072, 0.0 ], [ -61.2763322, -38.9846028, 0.0 ], [ -61.276241, -38.9837063, 0.0 ], [ -61.2765468, -38.9828515, 0.0 ], [ -61.2765682, -38.981267, 0.0 ], [ -61.2759137, -38.980312, 0.0 ], [ -61.2774158, -38.9801994, 0.0 ], [ -61.279207, -38.9801709, 0.0 ], [ -61.2799687, -38.9801376, 0.0 ], [ -61.2805051, -38.9800876, 0.0 ], [ -61.2807948, -38.9800959, 0.0 ], [ -61.2815887, -38.980271, 0.0 ], [ -61.2832249, -38.9801918, 0.0 ], [ -61.2835199, -38.9801793, 0.0 ], [ -61.2835808, -38.9812282, 0.0 ], [ -61.2836201, -38.9834948, 0.0 ], [ -61.2836715, -38.9840395, 0.0 ], [ -61.2837337, -38.9845509, 0.0 ], [ -61.2839331, -38.9855903, 0.0 ], [ -61.2840046, -38.9867018, 0.0 ], [ -61.2820466, -38.9868019, 0.0 ] ] ] } },
{ "type": "Feature", "properties": { "name": "Pinar del Golf", "source_title": "Urbanización Monte Hermoso del Este, mapa público (Google My Maps)", "source_url": "https://www.google.com/maps/d/viewer?mid=1R3oPGHZZi7LAdVFMrDoY-DIc5OnEQL8", "geometry_source": "polígono publicado por el desarrollador" }, "geometry": { "type": "Polygon", "coordinates": [ [ [ -61.2759137, -38.9803245, 0.0 ], [ -61.2765682, -38.9812795, 0.0 ], [ -61.2765642, -38.981564, 0.0 ], [ -61.2765602, -38.9820113, 0.0 ], [ -61.2765468, -38.982864, 0.0 ], [ -61.2763724, -38.9832914, 0.0 ], [ -61.276241, -38.9837188, 0.0 ], [ -61.2763322, -38.9846153, 0.0 ], [ -61.2724747, -38.9847723, 0.0 ], [ -61.2705673, -38.9848341, 0.0 ], [ -61.269383, -38.9848283, 0.0 ], [ -61.2692056, -38.984605, 0.0 ], [ -61.2692404, -38.9844215, 0.0 ], [ -61.2693276, -38.9841608, 0.0 ], [ -61.2693718, -38.9840065, 0.0 ], [ -61.2694604, -38.9837605, 0.0 ], [ -61.2694926, -38.9835687, 0.0 ], [ -61.2695247, -38.983331, 0.0 ], [ -61.2695301, -38.9828682, 0.0 ], [ -61.2694147, -38.9826722, 0.0 ], [ -61.2692672, -38.9825346, 0.0 ], [ -61.2690044, -38.9819716, 0.0 ], [ -61.2688542, -38.9815296, 0.0 ], [ -61.2686504, -38.9812169, 0.0 ], [ -61.2680602, -38.9804287, 0.0 ], [ -61.2693906, -38.9803995, 0.0 ], [ -61.2696963, -38.9804248, 0.0 ], [ -61.2713096, -38.9804761, 0.0 ], [ -61.2717697, -38.9804377, 0.0 ], [ -61.2721479, -38.9804009, 0.0 ], [ -61.2729761, -38.9803554, 0.0 ], [ -61.2738482, -38.9803604, 0.0 ], [ -61.2745456, -38.9803393, 0.0 ], [ -61.2752483, -38.9802932, 0.0 ], [ -61.2755647, -38.9802805, 0.0 ], [ -61.2758812, -38.9803136, 0.0 ], [ -61.2759137, -38.9803245, 0.0 ] ] ] } },
{ "type": "Feature", "properties": { "name": "Desarrollo Urbanístico Bungalow (Pro.Cre.Ar II e IPV)", "source_title": "montehermoso.gov.ar: Avanza a buen ritmo el Desarrollo Urbanístico PROCREAR de 70 viviendas", "source_url": "https://montehermoso.gov.ar/sitio/avanza-a-buen-ritmo-el-desarrollo-urbanistico-procrear-de-70-viviendas/", "geometry_source": "esquinas de Río Neuquén, Río Atuel, Luzuriaga y Lucinda Sutton (OpenStreetMap)" }, "geometry": { "type": "Polygon", "coordinates": [ [ [ -61.29817, -38.98317 ], [ -61.29822, -38.98406 ], [ -61.29709, -38.98409 ], [ -61.29704, -38.9832 ], [ -61.29817, -38.98317 ] ] ] } },
{ "type": "Feature", "properties": { "name": "Las Dunas (zona)", "source_title": "Nola, Rosell y Angeles 2014, Revista Universitaria de Geografía (UNS)", "source_url": "http://www.scielo.org.ar/scielo.php?script=sci_arttext&pid=S1852-42652014000100002", "geometry_source": "rectángulo aproximado entre Del Dientudo (oeste) y Las Ballenas (este), extremos de calles de OpenStreetMap" }, "geometry": { "type": "Polygon", "coordinates": [ [ [ -61.323, -38.9881 ], [ -61.323, -38.9791 ], [ -61.3334, -38.9791 ], [ -61.3334, -38.9881 ], [ -61.323, -38.9881 ] ] ] } },
{ "type": "Feature", "properties": { "name": "El Americano - barrio Los Bosques", "source_title": "Plano de zonificación del Plan y Código de Ordenamiento Urbano y Territorial de Monte Hermoso (Ord. 3246/2023), parcela 1050c; ordenanza 2418/2016 (Estrada y Viego 2019)", "source_url": "https://montehermoso.gov.ar/sitio/wp-content/uploads/Plano_Zonificacion.pdf", "geometry_source": "parcela 1050c vectorizada del PDF del plano municipal y georreferenciada contra el contorno de la laguna Sauce Grande de OpenStreetMap; error estimado de 250 m; el área resultante (484 ha) difiere 5 % de las 507 ha publicadas" }, "geometry": { "type": "Polygon", "coordinates": [ [ [ -61.35090015170659, -38.980794372290241 ], [ -61.350736854167778, -38.976616424848146 ], [ -61.344210410747536, -38.976784428998236 ], [ -61.354230107767215, -38.951343812395876 ], [ -61.355582821715586, -38.951759164384633 ], [ -61.356095100232281, -38.951745931909507 ], [ -61.360496675683912, -38.970199193934974 ], [ -61.363623458964561, -38.970611753822077 ], [ -61.36660963900588, -38.970593051303226 ], [ -61.369207051838508, -38.970260470421088 ], [ -61.370668671206509, -38.989002415318403 ], [ -61.363989940290757, -38.988540742253754 ], [ -61.36398388893889, -38.988398301889738 ], [ -61.363064484807005, -38.988616458032674 ], [ -61.361124003712312, -38.988521664337391 ], [ -61.356488353865991, -38.988706165490363 ], [ -61.354139164123957, -38.988476237915755 ], [ -61.354254510350941, -38.980748016384574 ], [ -61.35090015170659, -38.980794372290241 ] ] ] } }
]
}
