{
"type": "FeatureCollection",
"name": "longterm_events",
"crs": { "type": "name", "properties": { "name": "urn:ogc:def:crs:OGC:1.3:CRS84" } },
"features": [
{ "type": "Feature", "properties": { "kind": "loss", "year_to": 1987, "area_m2": 3597.911876713054 }, "geometry": { "type": "Polygon", "coordinates": [ [ [ -61.2803, -38.97294 ], [ -61.2803, -38.97348 ], [ -61.28134, -38.97348 ], [ -61.28134, -38.97321 ], [ -61.28065, -38.97321 ], [ -61.28065, -38.97294 ], [ -61.2803, -38.97294 ] ] ] } },
{ "type": "Feature", "properties": { "kind": "loss", "year_to": 1987, "area_m2": 2698.1819905650837 }, "geometry": { "type": "Polygon", "coordinates": [ [ [ -61.32536, -38.97968 ], [ -61.32536, -38.98022 ], [ -61.32606, -38.98022 ], [ -61.32606, -38.97995 ], [ -61.32571, -38.97995 ], [ -61.32571, -38.97968 ], [ -61.32536, -38.97968 ] ] ] } },
{ "type": "Feature", "properties": { "kind": "loss", "year_to": 1988, "area_m2": 4496.758766098621 }, "geometry": { "type": "MultiPolygon", "coordinates": [ [ [ [ -61.32675, -38.98292 ], [ -61.32606, -38.98292 ], [ -61.32606, -38.98319 ], [ -61.32675, -38.98319 ], [ -61.32675, -38.98292 ] ] ], [ [ [ -61.3271, -38.98346 ], [ -61.3271, -38.98319 ], [ -61.32675, -38.98319 ], [ -61.32675, -38.98346 ], [ -61.3271, -38.98346 ] ] ], [ [ [ -61.3264, -38.98346 ], [ -61.3264, -38.984 ], [ -61.32675, -38.984 ], [ -61.32675, -38.98346 ], [ -61.3264, -38.98346 ] ] ] ] } },
{ "type": "Feature", "properties": { "kind": "loss", "year_to": 1988, "area_m2": 8993.2310211744516 }, "geometry": { "type": "MultiPolygon", "coordinates": [ [ [ [ -61.32536, -38.98615 ], [ -61.32571, -38.98615 ], [ -61.32571, -38.98642 ], [ -61.32606, -38.98642 ], [ -61.32606, -38.98561 ], [ -61.3264, -38.98561 ], [ -61.3264, -38.98507 ], [ -61.32606, -38.98507 ], [ -61.32606, -38.98534 ], [ -61.32536, -38.98534 ], [ -61.32536, -38.98615 ] ] ], [ [ [ -61.32536, -38.98507 ], [ -61.32502, -38.98507 ], [ -61.32502, -38.98534 ], [ -61.32536, -38.98534 ], [ -61.32536, -38.98507 ] ] ] ] } },
{ "type": "Feature", "properties": { "kind": "loss", "year_to": 1999, "area_m2": 3598.0837337025114 }, "geometry": { "type": "Polygon", "coordinates": [ [ [ -61.29867, -38.96943 ], [ -61.29867, -38.9697 ], [ -61.29832, -38.9697 ], [ -61.29832, -38.97024 ], [ -61.29867, -38.97024 ], [ -61.29867, -38.96997 ], [ -61.29902, -38.96997 ], [ -61.29902, -38.96943 ], [ -61.29867, -38.96943 ] ] ] } },
{ "type": "Feature", "properties": { "kind": "loss", "year_to": 1999, "area_m2": 29682.323938957587 }, "geometry": { "type": "MultiPolygon", "coordinates": [ [ [ [ -61.28966, -38.97348 ], [ -61.28931, -38.97348 ], [ -61.28931, -38.97321 ], [ -61.28862, -38.97321 ], [ -61.28862, -38.97294 ], [ -61.28793, -38.97294 ], [ -61.28793, -38.97348 ], [ -61.28827, -38.97348 ], [ -61.28827, -38.97402 ], [ -61.28862, -38.97402 ], [ -61.28862, -38.97375 ], [ -61.28966, -38.97375 ], [ -61.28966, -38.97348 ] ] ], [ [ [ -61.29001, -38.97402 ], [ -61.29001, -38.97375 ], [ -61.28966, -38.97375 ], [ -61.28966, -38.97402 ], [ -61.29001, -38.97402 ] ] ], [ [ [ -61.28966, -38.97429 ], [ -61.28966, -38.97402 ], [ -61.28931, -38.97402 ], [ -61.28931, -38.97429 ], [ -61.28966, -38.97429 ] ] ], [ [ [ -61.28966, -38.97563 ], [ -61.28966, -38.9751 ], [ -61.28931, -38.9751 ], [ -61.28931, -38.97483 ], [ -61.28966, -38.97483 ], [ -61.28966, -38.97456 ], [ -61.28931, -38.97456 ], [ -61.28931, -38.97429 ], [ -61.28827, -38.97429 ], [ -61.28827, -38.97402 ], [ -61.28793, -38.97402 ], [ -61.28793, -38.97456 ], [ -61.28827, -38.97456 ], [ -61.28827, -38.97483 ], [ -61.28793, -38.97483 ], [ -61.28793, -38.9751 ], [ -61.28827, -38.9751 ], [ -61.28827, -38.97537 ], [ -61.28897, -38.97537 ], [ -61.28897, -38.97563 ], [ -61.28966, -38.97563 ] ] ], [ [ [ -61.28862, -38.97563 ], [ -61.28862, -38.9759 ], [ -61.28897, -38.9759 ], [ -61.28897, -38.97563 ], [ -61.28862, -38.97563 ] ] ] ] } },
{ "type": "Feature", "properties": { "kind": "loss", "year_to": 2000, "area_m2": 2698.2325455260566 }, "geometry": { "type": "Polygon", "coordinates": [ [ [ -61.27579, -38.97833 ], [ -61.27579, -38.9786 ], [ -61.27545, -38.9786 ], [ -61.27545, -38.97887 ], [ -61.27614, -38.97887 ], [ -61.27614, -38.97833 ], [ -61.27579, -38.97833 ] ] ] } },
{ "type": "Feature", "properties": { "kind": "loss", "year_to": 2004, "area_m2": 12590.903647030478 }, "geometry": { "type": "Polygon", "coordinates": [ [ [ -61.27649, -38.98292 ], [ -61.27649, -38.98319 ], [ -61.27579, -38.98319 ], [ -61.27579, -38.98373 ], [ -61.27649, -38.98373 ], [ -61.27649, -38.984 ], [ -61.27718, -38.984 ], [ -61.27718, -38.98373 ], [ -61.27787, -38.98373 ], [ -61.27787, -38.98319 ], [ -61.27718, -38.98319 ], [ -61.27718, -38.98346 ], [ -61.27683, -38.98346 ], [ -61.27683, -38.98292 ], [ -61.27649, -38.98292 ] ] ] } },
{ "type": "Feature", "properties": { "kind": "loss", "year_to": 2005, "area_m2": 2698.3066900724366 }, "geometry": { "type": "Polygon", "coordinates": [ [ [ -61.27163, -38.97644 ], [ -61.27163, -38.97698 ], [ -61.27198, -38.97698 ], [ -61.27198, -38.97671 ], [ -61.27233, -38.97671 ], [ -61.27233, -38.97644 ], [ -61.27163, -38.97644 ] ] ] } },
{ "type": "Feature", "properties": { "kind": "loss", "year_to": 2005, "area_m2": 4496.4486508936761 }, "geometry": { "type": "Polygon", "coordinates": [ [ [ -61.27857, -38.98804 ], [ -61.27857, -38.98831 ], [ -61.27787, -38.98831 ], [ -61.27787, -38.98858 ], [ -61.27891, -38.98858 ], [ -61.27891, -38.98831 ], [ -61.27926, -38.98831 ], [ -61.27926, -38.98804 ], [ -61.27857, -38.98804 ] ] ] } },
{ "type": "Feature", "properties": { "kind": "loss", "year_to": 2006, "area_m2": 2698.6200827327611 }, "geometry": { "type": "Polygon", "coordinates": [ [ [ -61.28966, -38.96808 ], [ -61.28966, -38.96835 ], [ -61.29001, -38.96835 ], [ -61.29001, -38.96862 ], [ -61.29035, -38.96862 ], [ -61.29035, -38.96808 ], [ -61.28966, -38.96808 ] ] ] } },
{ "type": "Feature", "properties": { "kind": "loss", "year_to": 2006, "area_m2": 2697.9831264815934 }, "geometry": { "type": "Polygon", "coordinates": [ [ [ -61.27857, -38.98507 ], [ -61.27857, -38.98534 ], [ -61.27891, -38.98534 ], [ -61.27891, -38.98561 ], [ -61.27926, -38.98561 ], [ -61.27926, -38.98507 ], [ -61.27857, -38.98507 ] ] ] } },
{ "type": "Feature", "properties": { "kind": "loss", "year_to": 2006, "area_m2": 2697.9831265567168 }, "geometry": { "type": "Polygon", "coordinates": [ [ [ -61.27753, -38.98507 ], [ -61.27753, -38.98534 ], [ -61.27787, -38.98534 ], [ -61.27787, -38.98561 ], [ -61.27822, -38.98561 ], [ -61.27822, -38.98507 ], [ -61.27753, -38.98507 ] ] ] } },
{ "type": "Feature", "properties": { "kind": "loss", "year_to": 2006, "area_m2": 4496.5531500212746 }, "geometry": { "type": "Polygon", "coordinates": [ [ [ -61.33126, -38.98642 ], [ -61.33126, -38.98669 ], [ -61.3316, -38.98669 ], [ -61.3316, -38.98696 ], [ -61.3323, -38.98696 ], [ -61.3323, -38.98642 ], [ -61.33126, -38.98642 ] ] ] } },
{ "type": "Feature", "properties": { "kind": "loss", "year_to": 2007, "area_m2": 6295.8411131492503 }, "geometry": { "type": "Polygon", "coordinates": [ [ [ -61.34582, -38.9786 ], [ -61.34582, -38.97914 ], [ -61.34616, -38.97914 ], [ -61.34616, -38.97968 ], [ -61.34651, -38.97968 ], [ -61.34651, -38.97914 ], [ -61.34686, -38.97914 ], [ -61.34686, -38.97887 ], [ -61.34651, -38.97887 ], [ -61.34651, -38.9786 ], [ -61.34582, -38.9786 ] ] ] } },
{ "type": "Feature", "properties": { "kind": "loss", "year_to": 2007, "area_m2": 2698.2055831525367 }, "geometry": { "type": "MultiPolygon", "coordinates": [ [ [ [ -61.34131, -38.97914 ], [ -61.34062, -38.97914 ], [ -61.34062, -38.97941 ], [ -61.34131, -38.97941 ], [ -61.34131, -38.97914 ] ] ], [ [ [ -61.34131, -38.97968 ], [ -61.34166, -38.97968 ], [ -61.34166, -38.97941 ], [ -61.34131, -38.97941 ], [ -61.34131, -38.97968 ] ] ] ] } },
{ "type": "Feature", "properties": { "kind": "loss", "year_to": 2007, "area_m2": 17088.511780066565 }, "geometry": { "type": "Polygon", "coordinates": [ [ [ -61.34859, -38.97941 ], [ -61.34859, -38.97968 ], [ -61.34824, -38.97968 ], [ -61.34824, -38.97941 ], [ -61.3472, -38.97941 ], [ -61.3472, -38.98022 ], [ -61.34755, -38.98022 ], [ -61.34755, -38.98049 ], [ -61.34824, -38.98049 ], [ -61.34824, -38.98022 ], [ -61.34928, -38.98022 ], [ -61.34928, -38.97941 ], [ -61.34859, -38.97941 ] ] ] } },
{ "type": "Feature", "properties": { "kind": "loss", "year_to": 2007, "area_m2": 2698.1348047915972 }, "geometry": { "type": "Polygon", "coordinates": [ [ [ -61.27822, -38.98103 ], [ -61.27822, -38.98157 ], [ -61.27857, -38.98157 ], [ -61.27857, -38.9813 ], [ -61.27891, -38.9813 ], [ -61.27891, -38.98103 ], [ -61.27822, -38.98103 ] ] ] } },
{ "type": "Feature", "properties": { "kind": "loss", "year_to": 2007, "area_m2": 5396.2527570027578 }, "geometry": { "type": "Polygon", "coordinates": [ [ [ -61.27718, -38.98103 ], [ -61.27718, -38.98157 ], [ -61.27753, -38.98157 ], [ -61.27753, -38.98211 ], [ -61.27787, -38.98211 ], [ -61.27787, -38.98103 ], [ -61.27718, -38.98103 ] ] ] } },
{ "type": "Feature", "properties": { "kind": "loss", "year_to": 2007, "area_m2": 4496.8464007890543 }, "geometry": { "type": "Polygon", "coordinates": [ [ [ -61.27649, -38.9813 ], [ -61.27649, -38.98265 ], [ -61.27683, -38.98265 ], [ -61.27683, -38.9813 ], [ -61.27649, -38.9813 ] ] ] } },
{ "type": "Feature", "properties": { "kind": "loss", "year_to": 2007, "area_m2": 2697.9898681218715 }, "geometry": { "type": "Polygon", "coordinates": [ [ [ -61.3323, -38.9848 ], [ -61.3323, -38.98507 ], [ -61.33195, -38.98507 ], [ -61.33195, -38.98534 ], [ -61.33264, -38.98534 ], [ -61.33264, -38.9848 ], [ -61.3323, -38.9848 ] ] ] } },
{ "type": "Feature", "properties": { "kind": "loss", "year_to": 2007, "area_m2": 158286.5933593334 }, "geometry": { "type": "MultiPolygon", "coordinates": [ [ [ [ -61.34304, -38.98427 ], [ -61.34304, -38.98373 ], [ -61.34339, -38.98373 ], [ -61.34339, -38.98346 ], [ -61.34374, -38.98346 ], [ -61.34374, -38.98238 ], [ -61.34408, -38.98238 ], [ -61.34408, -38.98211 ], [ -61.34374, -38.98211 ], [ -61.34374, -38.98184 ], [ -61.34408, -38.98184 ], [ -61.34408, -38.98103 ], [ -61.34443, -38.98103 ], [ -61.34443, -38.98076 ], [ -61.34478, -38.98076 ], [ -61.34478, -38.98022 ], [ -61.34443, -38.98022 ], [ -61.34443, -38.97968 ], [ -61.34339, -38.97968 ], [ -61.34339, -38.97941 ], [ -61.34304, -38.97941 ], [ -61.34304, -38.97887 ], [ -61.3427, -38.97887 ], [ -61.3427, -38.97914 ], [ -61.34235, -38.97914 ], [ -61.34235, -38.97968 ], [ -61.342, -38.97968 ], [ -61.342, -38.97995 ], [ -61.34166, -38.97995 ], [ -61.34166, -38.98184 ], [ -61.34131, -38.98184 ], [ -61.34131, -38.98211 ], [ -61.342, -38.98211 ], [ -61.342, -38.98184 ], [ -61.34235, -38.98184 ], [ -61.34235, -38.98211 ], [ -61.3427, -38.98211 ], [ -61.3427, -38.98238 ], [ -61.34304, -38.98238 ], [ -61.34304, -38.98292 ], [ -61.3427, -38.98292 ], [ -61.3427, -38.98346 ], [ -61.342, -38.98346 ], [ -61.342, -38.98319 ], [ -61.34166, -38.98319 ], [ -61.34166, -38.98292 ], [ -61.34096, -38.98292 ], [ -61.34096, -38.984 ], [ -61.34166, -38.984 ], [ -61.34166, -38.98427 ], [ -61.342, -38.98427 ], [ -61.342, -38.98373 ], [ -61.3427, -38.98373 ], [ -61.3427, -38.98427 ], [ -61.34304, -38.98427 ] ], [ [ -61.34235, -38.9813 ], [ -61.342, -38.9813 ], [ -61.342, -38.98103 ], [ -61.34235, -38.98103 ], [ -61.34235, -38.9813 ] ], [ [ -61.34339, -38.98184 ], [ -61.34304, -38.98184 ], [ -61.34304, -38.98157 ], [ -61.34339, -38.98157 ], [ -61.34339, -38.98184 ] ] ], [ [ [ -61.34131, -38.98427 ], [ -61.34131, -38.98588 ], [ -61.34166, -38.98588 ], [ -61.34166, -38.98615 ], [ -61.34339, -38.98615 ], [ -61.34339, -38.98669 ], [ -61.34374, -38.98669 ], [ -61.34374, -38.98615 ], [ -61.34408, -38.98615 ], [ -61.34408, -38.98588 ], [ -61.34582, -38.98588 ], [ -61.34582, -38.98561 ], [ -61.3472, -38.98561 ], [ -61.3472, -38.9848 ], [ -61.34755, -38.9848 ], [ -61.34755, -38.98454 ], [ -61.34686, -38.98454 ], [ -61.34686, -38.9848 ], [ -61.34616, -38.9848 ], [ -61.34616, -38.98507 ], [ -61.34547, -38.98507 ], [ -61.34547, -38.98561 ], [ -61.34478, -38.98561 ], [ -61.34478, -38.98507 ], [ -61.34408, -38.98507 ], [ -61.34408, -38.9848 ], [ -61.34374, -38.9848 ], [ -61.34374, -38.98507 ], [ -61.34304, -38.98507 ], [ -61.34304, -38.9848 ], [ -61.34339, -38.9848 ], [ -61.34339, -38.98454 ], [ -61.3427, -38.98454 ], [ -61.3427, -38.98427 ], [ -61.342, -38.98427 ], [ -61.342, -38.98454 ], [ -61.34166, -38.98454 ], [ -61.34166, -38.98427 ], [ -61.34131, -38.98427 ] ] ] ] } },
{ "type": "Feature", "properties": { "kind": "loss", "year_to": 2007, "area_m2": 4496.5464082380659 }, "geometry": { "type": "MultiPolygon", "coordinates": [ [ [ [ -61.3427, -38.98669 ], [ -61.3427, -38.98642 ], [ -61.34235, -38.98642 ], [ -61.34235, -38.98669 ], [ -61.3427, -38.98669 ] ] ], [ [ [ -61.342, -38.98669 ], [ -61.342, -38.98642 ], [ -61.34166, -38.98642 ], [ -61.34166, -38.98723 ], [ -61.342, -38.98723 ], [ -61.342, -38.98696 ], [ -61.34235, -38.98696 ], [ -61.34235, -38.98669 ], [ -61.342, -38.98669 ] ] ] ] } },
{ "type": "Feature", "properties": { "kind": "loss", "year_to": 2008, "area_m2": 2698.7818110830999 }, "geometry": { "type": "MultiPolygon", "coordinates": [ [ [ [ -61.29416, -38.96377 ], [ -61.29347, -38.96377 ], [ -61.29347, -38.96404 ], [ -61.29416, -38.96404 ], [ -61.29416, -38.96377 ] ] ], [ [ [ -61.29416, -38.96431 ], [ -61.29451, -38.96431 ], [ -61.29451, -38.96404 ], [ -61.29416, -38.96404 ], [ -61.29416, -38.96431 ] ] ] ] } },
{ "type": "Feature", "properties": { "kind": "loss", "year_to": 2008, "area_m2": 4497.4698790503608 }, "geometry": { "type": "Polygon", "coordinates": [ [ [ -61.27129, -38.97186 ], [ -61.27129, -38.97213 ], [ -61.27302, -38.97213 ], [ -61.27302, -38.97186 ], [ -61.27129, -38.97186 ] ] ] } },
{ "type": "Feature", "properties": { "kind": "loss", "year_to": 2008, "area_m2": 3597.9051369295867 }, "geometry": { "type": "Polygon", "coordinates": [ [ [ -61.27163, -38.97321 ], [ -61.27163, -38.97348 ], [ -61.27198, -38.97348 ], [ -61.27198, -38.97375 ], [ -61.27233, -38.97375 ], [ -61.27233, -38.97348 ], [ -61.27267, -38.97348 ], [ -61.27267, -38.97321 ], [ -61.27163, -38.97321 ] ] ] } },
{ "type": "Feature", "properties": { "kind": "loss", "year_to": 2008, "area_m2": 4497.247465130722 }, "geometry": { "type": "Polygon", "coordinates": [ [ [ -61.29347, -38.9751 ], [ -61.29347, -38.9759 ], [ -61.29416, -38.9759 ], [ -61.29416, -38.97537 ], [ -61.29382, -38.97537 ], [ -61.29382, -38.9751 ], [ -61.29347, -38.9751 ] ] ] } },
{ "type": "Feature", "properties": { "kind": "loss", "year_to": 2008, "area_m2": 8994.3297956355946 }, "geometry": { "type": "Polygon", "coordinates": [ [ [ -61.29243, -38.97644 ], [ -61.29243, -38.97671 ], [ -61.29209, -38.97671 ], [ -61.29209, -38.97644 ], [ -61.29174, -38.97644 ], [ -61.29174, -38.97671 ], [ -61.29139, -38.97671 ], [ -61.29139, -38.97725 ], [ -61.29174, -38.97725 ], [ -61.29174, -38.97698 ], [ -61.29209, -38.97698 ], [ -61.29209, -38.97752 ], [ -61.29243, -38.97752 ], [ -61.29243, -38.97698 ], [ -61.29278, -38.97698 ], [ -61.29278, -38.97671 ], [ -61.29312, -38.97671 ], [ -61.29312, -38.97644 ], [ -61.29243, -38.97644 ] ] ] } },
{ "type": "Feature", "properties": { "kind": "loss", "year_to": 2008, "area_m2": 2698.2729883888128 }, "geometry": { "type": "MultiPolygon", "coordinates": [ [ [ [ -61.22795, -38.97725 ], [ -61.22761, -38.97725 ], [ -61.22761, -38.97752 ], [ -61.22795, -38.97752 ], [ -61.22795, -38.97725 ] ] ], [ [ [ -61.22795, -38.97779 ], [ -61.2283, -38.97779 ], [ -61.2283, -38.97752 ], [ -61.22795, -38.97752 ], [ -61.22795, -38.97779 ] ] ], [ [ [ -61.22726, -38.97752 ], [ -61.22726, -38.97779 ], [ -61.22761, -38.97779 ], [ -61.22761, -38.97752 ], [ -61.22726, -38.97752 ] ] ] ] } },
{ "type": "Feature", "properties": { "kind": "loss", "year_to": 2008, "area_m2": 25184.018277221305 }, "geometry": { "type": "MultiPolygon", "coordinates": [ [ [ [ -61.29451, -38.97779 ], [ -61.29451, -38.97833 ], [ -61.29486, -38.97833 ], [ -61.29486, -38.97806 ], [ -61.2952, -38.97806 ], [ -61.2952, -38.97779 ], [ -61.2959, -38.97779 ], [ -61.2959, -38.97563 ], [ -61.29555, -38.97563 ], [ -61.29555, -38.9759 ], [ -61.2952, -38.9759 ], [ -61.2952, -38.97644 ], [ -61.29486, -38.97644 ], [ -61.29486, -38.97671 ], [ -61.29555, -38.97671 ], [ -61.29555, -38.97698 ], [ -61.29451, -38.97698 ], [ -61.29451, -38.97725 ], [ -61.29347, -38.97725 ], [ -61.29347, -38.97752 ], [ -61.29416, -38.97752 ], [ -61.29416, -38.97779 ], [ -61.29451, -38.97779 ] ], [ [ -61.29555, -38.97752 ], [ -61.29486, -38.97752 ], [ -61.29486, -38.97725 ], [ -61.29555, -38.97725 ], [ -61.29555, -38.97752 ] ] ], [ [ [ -61.29382, -38.97779 ], [ -61.29382, -38.97833 ], [ -61.29416, -38.97833 ], [ -61.29416, -38.97779 ], [ -61.29382, -38.97779 ] ] ] ] } },
{ "type": "Feature", "properties": { "kind": "loss", "year_to": 2008, "area_m2": 2698.1583979086095 }, "geometry": { "type": "Polygon", "coordinates": [ [ [ -61.32432, -38.98049 ], [ -61.32432, -38.98076 ], [ -61.32536, -38.98076 ], [ -61.32536, -38.98049 ], [ -61.32432, -38.98049 ] ] ] } },
{ "type": "Feature", "properties": { "kind": "loss", "year_to": 2008, "area_m2": 3597.5141965813482 }, "geometry": { "type": "Polygon", "coordinates": [ [ [ -61.27614, -38.98103 ], [ -61.27614, -38.9813 ], [ -61.27683, -38.9813 ], [ -61.27683, -38.98157 ], [ -61.27718, -38.98157 ], [ -61.27718, -38.98103 ], [ -61.27614, -38.98103 ] ] ] } },
{ "type": "Feature", "properties": { "kind": "loss", "year_to": 2008, "area_m2": 2698.0943584277716 }, "geometry": { "type": "Polygon", "coordinates": [ [ [ -61.28169, -38.98211 ], [ -61.28169, -38.98238 ], [ -61.28203, -38.98238 ], [ -61.28203, -38.98265 ], [ -61.28238, -38.98265 ], [ -61.28238, -38.98211 ], [ -61.28169, -38.98211 ] ] ] } },
{ "type": "Feature", "properties": { "kind": "loss", "year_to": 2008, "area_m2": 2698.0505407515075 }, "geometry": { "type": "Polygon", "coordinates": [ [ [ -61.33264, -38.98319 ], [ -61.33264, -38.98373 ], [ -61.33334, -38.98373 ], [ -61.33334, -38.98346 ], [ -61.33299, -38.98346 ], [ -61.33299, -38.98319 ], [ -61.33264, -38.98319 ] ] ] } },
{ "type": "Feature", "properties": { "kind": "loss", "year_to": 2008, "area_m2": 2698.0437994416661 }, "geometry": { "type": "MultiPolygon", "coordinates": [ [ [ [ -61.32779, -38.98373 ], [ -61.32779, -38.98346 ], [ -61.3271, -38.98346 ], [ -61.3271, -38.98373 ], [ -61.32779, -38.98373 ] ] ], [ [ [ -61.32675, -38.98373 ], [ -61.32675, -38.984 ], [ -61.3271, -38.984 ], [ -61.3271, -38.98373 ], [ -61.32675, -38.98373 ] ] ] ] } },
{ "type": "Feature", "properties": { "kind": "loss", "year_to": 2008, "area_m2": 10791.69317652855 }, "geometry": { "type": "MultiPolygon", "coordinates": [ [ [ [ -61.27753, -38.98669 ], [ -61.27787, -38.98669 ], [ -61.27787, -38.98615 ], [ -61.27753, -38.98615 ], [ -61.27753, -38.98588 ], [ -61.27718, -38.98588 ], [ -61.27718, -38.98696 ], [ -61.27753, -38.98696 ], [ -61.27753, -38.98669 ] ] ], [ [ [ -61.27753, -38.98777 ], [ -61.27822, -38.98777 ], [ -61.27822, -38.98696 ], [ -61.27753, -38.98696 ], [ -61.27753, -38.98777 ] ] ] ] } },
{ "type": "Feature", "properties": { "kind": "loss", "year_to": 2009, "area_m2": 2698.397680917833 }, "geometry": { "type": "Polygon", "coordinates": [ [ [ -61.29624, -38.97402 ], [ -61.29624, -38.97429 ], [ -61.29659, -38.97429 ], [ -61.29659, -38.97456 ], [ -61.29694, -38.97456 ], [ -61.29694, -38.97402 ], [ -61.29624, -38.97402 ] ] ] } },
{ "type": "Feature", "properties": { "kind": "loss", "year_to": 2009, "area_m2": 2698.390941109943 }, "geometry": { "type": "MultiPolygon", "coordinates": [ [ [ [ -61.29555, -38.97456 ], [ -61.29555, -38.97402 ], [ -61.2952, -38.97402 ], [ -61.2952, -38.97456 ], [ -61.29555, -38.97456 ] ] ], [ [ [ -61.29486, -38.97456 ], [ -61.29486, -38.97483 ], [ -61.2952, -38.97483 ], [ -61.2952, -38.97456 ], [ -61.29486, -38.97456 ] ] ] ] } },
{ "type": "Feature", "properties": { "kind": "loss", "year_to": 2009, "area_m2": 3597.5950863307671 }, "geometry": { "type": "Polygon", "coordinates": [ [ [ -61.28654, -38.97914 ], [ -61.28654, -38.97995 ], [ -61.28723, -38.97995 ], [ -61.28723, -38.97968 ], [ -61.28689, -38.97968 ], [ -61.28689, -38.97914 ], [ -61.28654, -38.97914 ] ] ] } },
{ "type": "Feature", "properties": { "kind": "loss", "year_to": 2012, "area_m2": 4496.5160700536171 }, "geometry": { "type": "Polygon", "coordinates": [ [ [ -61.3323, -38.98696 ], [ -61.3323, -38.9875 ], [ -61.33334, -38.9875 ], [ -61.33334, -38.98723 ], [ -61.33299, -38.98723 ], [ -61.33299, -38.98696 ], [ -61.3323, -38.98696 ] ] ] } },
{ "type": "Feature", "properties": { "kind": "loss", "year_to": 2014, "area_m2": 2697.7606407979174 }, "geometry": { "type": "Polygon", "coordinates": [ [ [ -61.21513, -38.99101 ], [ -61.21513, -38.99155 ], [ -61.21547, -38.99155 ], [ -61.21547, -38.99128 ], [ -61.21582, -38.99128 ], [ -61.21582, -38.99101 ], [ -61.21513, -38.99101 ] ] ] } },
{ "type": "Feature", "properties": { "kind": "loss", "year_to": 2017, "area_m2": 3597.8748079412399 }, "geometry": { "type": "Polygon", "coordinates": [ [ [ -61.31427, -38.97375 ], [ -61.31427, -38.97429 ], [ -61.31496, -38.97429 ], [ -61.31496, -38.97375 ], [ -61.31427, -38.97375 ] ] ] } },
{ "type": "Feature", "properties": { "kind": "loss", "year_to": 2017, "area_m2": 2697.8887422814128 }, "geometry": { "type": "MultiPolygon", "coordinates": [ [ [ [ -61.27683, -38.98777 ], [ -61.27683, -38.9875 ], [ -61.27649, -38.9875 ], [ -61.27649, -38.98777 ], [ -61.27683, -38.98777 ] ] ], [ [ [ -61.27579, -38.98777 ], [ -61.27579, -38.98804 ], [ -61.27649, -38.98804 ], [ -61.27649, -38.98777 ], [ -61.27579, -38.98777 ] ] ] ] } },
{ "type": "Feature", "properties": { "kind": "loss", "year_to": 2020, "area_m2": 2698.6605163187796 }, "geometry": { "type": "MultiPolygon", "coordinates": [ [ [ [ -61.35622, -38.967 ], [ -61.35552, -38.967 ], [ -61.35552, -38.96727 ], [ -61.35622, -38.96727 ], [ -61.35622, -38.967 ] ] ], [ [ [ -61.35622, -38.96754 ], [ -61.35656, -38.96754 ], [ -61.35656, -38.96727 ], [ -61.35622, -38.96727 ], [ -61.35622, -38.96754 ] ] ] ] } },
{ "type": "Feature", "properties": { "kind": "loss", "year_to": 2020, "area_m2": 2697.8685163710757 }, "geometry": { "type": "Polygon", "coordinates": [ [ [ -61.2751, -38.98804 ], [ -61.2751, -38.98858 ], [ -61.27579, -38.98858 ], [ -61.27579, -38.98831 ], [ -61.27545, -38.98831 ], [ -61.27545, -38.98804 ], [ -61.2751, -38.98804 ] ] ] } },
{ "type": "Feature", "properties": { "kind": "loss", "year_to": 2020, "area_m2": 3596.9478859277042 }, "geometry": { "type": "Polygon", "coordinates": [ [ [ -61.18081, -38.99236 ], [ -61.18081, -38.9929 ], [ -61.18115, -38.9929 ], [ -61.18115, -38.99263 ], [ -61.18185, -38.99263 ], [ -61.18185, -38.99236 ], [ -61.18081, -38.99236 ] ] ] } },
{ "type": "Feature", "properties": { "kind": "loss", "year_to": 2022, "area_m2": 5396.4280179009111 }, "geometry": { "type": "Polygon", "coordinates": [ [ [ -61.30387, -38.97887 ], [ -61.30387, -38.97941 ], [ -61.30491, -38.97941 ], [ -61.30491, -38.97887 ], [ -61.30387, -38.97887 ] ] ] } },
{ "type": "Feature", "properties": { "kind": "loss", "year_to": 2022, "area_m2": 9893.2811630036867 }, "geometry": { "type": "MultiPolygon", "coordinates": [ [ [ [ -61.26678, -38.98022 ], [ -61.26643, -38.98022 ], [ -61.26643, -38.97995 ], [ -61.26574, -38.97995 ], [ -61.26574, -38.98022 ], [ -61.2647, -38.98022 ], [ -61.2647, -38.98049 ], [ -61.26678, -38.98049 ], [ -61.26678, -38.98022 ] ] ], [ [ [ -61.26678, -38.98076 ], [ -61.26782, -38.98076 ], [ -61.26782, -38.98049 ], [ -61.26678, -38.98049 ], [ -61.26678, -38.98076 ] ] ] ] } },
{ "type": "Feature", "properties": { "kind": "loss", "year_to": 2022, "area_m2": 3597.5445305782027 }, "geometry": { "type": "Polygon", "coordinates": [ [ [ -61.25742, -38.98049 ], [ -61.25742, -38.98076 ], [ -61.25881, -38.98076 ], [ -61.25881, -38.98049 ], [ -61.25742, -38.98049 ] ] ] } },
{ "type": "Feature", "properties": { "kind": "loss", "year_to": 2022, "area_m2": 2697.9426768658986 }, "geometry": { "type": "Polygon", "coordinates": [ [ [ -61.32432, -38.98615 ], [ -61.32432, -38.98669 ], [ -61.32467, -38.98669 ], [ -61.32467, -38.98642 ], [ -61.32502, -38.98642 ], [ -61.32502, -38.98615 ], [ -61.32432, -38.98615 ] ] ] } },
{ "type": "Feature", "properties": { "kind": "loss", "year_to": 2022, "area_m2": 3597.2344299889501 }, "geometry": { "type": "Polygon", "coordinates": [ [ [ -61.27025, -38.98669 ], [ -61.27025, -38.98696 ], [ -61.27163, -38.98696 ], [ -61.27163, -38.98669 ], [ -61.27025, -38.98669 ] ] ] } },
{ "type": "Feature", "properties": { "kind": "loss", "year_to": 2022, "area_m2": 3597.2276880499885 }, "geometry": { "type": "MultiPolygon", "coordinates": [ [ [ [ -61.27406, -38.98696 ], [ -61.27406, -38.98642 ], [ -61.27371, -38.98642 ], [ -61.27371, -38.98696 ], [ -61.27406, -38.98696 ] ] ], [ [ [ -61.27371, -38.98696 ], [ -61.27337, -38.98696 ], [ -61.27337, -38.98723 ], [ -61.27371, -38.98723 ], [ -61.27371, -38.98696 ] ] ], [ [ [ -61.27371, -38.9875 ], [ -61.27406, -38.9875 ], [ -61.27406, -38.98723 ], [ -61.27371, -38.98723 ], [ -61.27371, -38.9875 ] ] ] ] } },
{ "type": "Feature", "properties": { "kind": "loss", "year_to": 2023, "area_m2": 4497.1463620429504 }, "geometry": { "type": "Polygon", "coordinates": [ [ [ -61.32259, -38.97671 ], [ -61.32259, -38.97698 ], [ -61.32224, -38.97698 ], [ -61.32224, -38.97752 ], [ -61.32294, -38.97752 ], [ -61.32294, -38.97671 ], [ -61.32259, -38.97671 ] ] ] } },
{ "type": "Feature", "properties": { "kind": "loss", "year_to": 2023, "area_m2": 67458.078397541845 }, "geometry": { "type": "MultiPolygon", "coordinates": [ [ [ [ -61.3219, -38.9751 ], [ -61.3219, -38.97483 ], [ -61.32155, -38.97483 ], [ -61.32155, -38.9751 ], [ -61.3219, -38.9751 ] ] ], [ [ [ -61.32016, -38.97752 ], [ -61.32016, -38.97698 ], [ -61.32086, -38.97698 ], [ -61.32086, -38.97752 ], [ -61.3212, -38.97752 ], [ -61.3212, -38.97671 ], [ -61.32051, -38.97671 ], [ -61.32051, -38.97617 ], [ -61.32155, -38.97617 ], [ -61.32155, -38.97644 ], [ -61.3219, -38.97644 ], [ -61.3219, -38.97617 ], [ -61.32224, -38.97617 ], [ -61.32224, -38.9759 ], [ -61.3212, -38.9759 ], [ -61.3212, -38.97537 ], [ -61.32155, -38.97537 ], [ -61.32155, -38.9751 ], [ -61.32051, -38.9751 ], [ -61.32051, -38.97483 ], [ -61.31843, -38.97483 ], [ -61.31843, -38.9751 ], [ -61.31912, -38.9751 ], [ -61.31912, -38.97537 ], [ -61.31878, -38.97537 ], [ -61.31878, -38.97617 ], [ -61.31808, -38.97617 ], [ -61.31808, -38.97752 ], [ -61.31843, -38.97752 ], [ -61.31843, -38.97779 ], [ -61.31982, -38.97779 ], [ -61.31982, -38.97752 ], [ -61.32016, -38.97752 ] ], [ [ -61.31878, -38.97752 ], [ -61.31878, -38.97725 ], [ -61.31982, -38.97725 ], [ -61.31982, -38.97752 ], [ -61.31878, -38.97752 ] ], [ [ -61.32051, -38.9759 ], [ -61.31982, -38.9759 ], [ -61.31982, -38.97563 ], [ -61.32051, -38.97563 ], [ -61.32051, -38.9759 ] ] ] ] } },
{ "type": "Feature", "properties": { "kind": "loss", "year_to": 2023, "area_m2": 4496.9306631977106 }, "geometry": { "type": "Polygon", "coordinates": [ [ [ -61.25569, -38.98049 ], [ -61.25569, -38.98076 ], [ -61.25742, -38.98076 ], [ -61.25742, -38.98049 ], [ -61.25569, -38.98049 ] ] ] } },
{ "type": "Feature", "properties": { "kind": "loss", "year_to": 2023, "area_m2": 5396.2932024137444 }, "geometry": { "type": "Polygon", "coordinates": [ [ [ -61.25153, -38.98076 ], [ -61.25153, -38.98103 ], [ -61.25291, -38.98103 ], [ -61.25291, -38.9813 ], [ -61.25326, -38.9813 ], [ -61.25326, -38.98076 ], [ -61.25153, -38.98076 ] ] ] } },
{ "type": "Feature", "properties": { "kind": "loss", "year_to": 2024, "area_m2": 4497.7023842352555 }, "geometry": { "type": "Polygon", "coordinates": [ [ [ -61.30595, -38.96781 ], [ -61.30595, -38.96862 ], [ -61.30664, -38.96862 ], [ -61.30664, -38.96808 ], [ -61.3063, -38.96808 ], [ -61.3063, -38.96781 ], [ -61.30595, -38.96781 ] ] ] } },
{ "type": "Feature", "properties": { "kind": "loss", "year_to": 2024, "area_m2": 4497.6956451932965 }, "geometry": { "type": "MultiPolygon", "coordinates": [ [ [ [ -61.30768, -38.96862 ], [ -61.30768, -38.96835 ], [ -61.30838, -38.96835 ], [ -61.30838, -38.96808 ], [ -61.30734, -38.96808 ], [ -61.30734, -38.96862 ], [ -61.30768, -38.96862 ] ] ], [ [ [ -61.30699, -38.96862 ], [ -61.30699, -38.96889 ], [ -61.30734, -38.96889 ], [ -61.30734, -38.96862 ], [ -61.30699, -38.96862 ] ] ] ] } },
{ "type": "Feature", "properties": { "kind": "loss", "year_to": 2024, "area_m2": 11693.72495980347 }, "geometry": { "type": "Polygon", "coordinates": [ [ [ -61.31427, -38.97078 ], [ -61.31496, -38.97078 ], [ -61.31496, -38.97024 ], [ -61.31531, -38.97024 ], [ -61.31531, -38.9697 ], [ -61.31358, -38.9697 ], [ -61.31358, -38.96997 ], [ -61.31392, -38.96997 ], [ -61.31392, -38.97051 ], [ -61.31427, -38.97051 ], [ -61.31427, -38.97078 ] ], [ [ -61.31427, -38.97024 ], [ -61.31462, -38.97024 ], [ -61.31462, -38.97051 ], [ -61.31427, -38.97051 ], [ -61.31427, -38.97024 ] ] ] } },
{ "type": "Feature", "properties": { "kind": "loss", "year_to": 2024, "area_m2": 5397.0413590483149 }, "geometry": { "type": "MultiPolygon", "coordinates": [ [ [ [ -61.3115, -38.97051 ], [ -61.31115, -38.97051 ], [ -61.31115, -38.97078 ], [ -61.3115, -38.97078 ], [ -61.3115, -38.97051 ] ] ], [ [ [ -61.3115, -38.97105 ], [ -61.31184, -38.97105 ], [ -61.31184, -38.97078 ], [ -61.3115, -38.97078 ], [ -61.3115, -38.97105 ] ] ], [ [ [ -61.31115, -38.97105 ], [ -61.31115, -38.97078 ], [ -61.31046, -38.97078 ], [ -61.31046, -38.97105 ], [ -61.31115, -38.97105 ] ] ], [ [ [ -61.30976, -38.97105 ], [ -61.30976, -38.97132 ], [ -61.31046, -38.97132 ], [ -61.31046, -38.97105 ], [ -61.30976, -38.97105 ] ] ] ] } },
{ "type": "Feature", "properties": { "kind": "loss", "year_to": 2024, "area_m2": 6296.4948984054299 }, "geometry": { "type": "MultiPolygon", "coordinates": [ [ [ [ -61.30664, -38.97105 ], [ -61.3063, -38.97105 ], [ -61.3063, -38.97132 ], [ -61.30664, -38.97132 ], [ -61.30664, -38.97105 ] ] ], [ [ [ -61.30595, -38.97132 ], [ -61.30595, -38.97186 ], [ -61.30734, -38.97186 ], [ -61.30734, -38.97159 ], [ -61.30699, -38.97159 ], [ -61.30699, -38.97132 ], [ -61.30664, -38.97132 ], [ -61.30664, -38.97159 ], [ -61.3063, -38.97159 ], [ -61.3063, -38.97132 ], [ -61.30595, -38.97132 ] ] ] ] } },
{ "type": "Feature", "properties": { "kind": "loss", "year_to": 2024, "area_m2": 3597.9826429191908 }, "geometry": { "type": "Polygon", "coordinates": [ [ [ -61.30456, -38.97159 ], [ -61.30456, -38.97186 ], [ -61.30491, -38.97186 ], [ -61.30491, -38.97213 ], [ -61.3056, -38.97213 ], [ -61.3056, -38.97186 ], [ -61.30526, -38.97186 ], [ -61.30526, -38.97159 ], [ -61.30456, -38.97159 ] ] ] } },
{ "type": "Feature", "properties": { "kind": "loss", "year_to": 2024, "area_m2": 8095.3076199086427 }, "geometry": { "type": "MultiPolygon", "coordinates": [ [ [ [ -61.31254, -38.97321 ], [ -61.31323, -38.97321 ], [ -61.31323, -38.97294 ], [ -61.31288, -38.97294 ], [ -61.31288, -38.97267 ], [ -61.31219, -38.97267 ], [ -61.31219, -38.97321 ], [ -61.31184, -38.97321 ], [ -61.31184, -38.97348 ], [ -61.31219, -38.97348 ], [ -61.31219, -38.97375 ], [ -61.31254, -38.97375 ], [ -61.31254, -38.97321 ] ] ], [ [ [ -61.31254, -38.97402 ], [ -61.31288, -38.97402 ], [ -61.31288, -38.97375 ], [ -61.31254, -38.97375 ], [ -61.31254, -38.97402 ] ] ] ] } },
{ "type": "Feature", "properties": { "kind": "loss", "year_to": 2024, "area_m2": 4497.3485647736197 }, "geometry": { "type": "MultiPolygon", "coordinates": [ [ [ [ -61.31427, -38.97348 ], [ -61.31392, -38.97348 ], [ -61.31392, -38.97375 ], [ -61.31427, -38.97375 ], [ -61.31427, -38.97348 ] ] ], [ [ [ -61.31427, -38.97429 ], [ -61.31496, -38.97429 ], [ -61.31496, -38.97375 ], [ -61.31427, -38.97375 ], [ -61.31427, -38.97429 ] ] ] ] } },
{ "type": "Feature", "properties": { "kind": "loss", "year_to": 2024, "area_m2": 2698.4077909485222 }, "geometry": { "type": "Polygon", "coordinates": [ [ [ -61.30664, -38.97375 ], [ -61.30664, -38.97402 ], [ -61.30699, -38.97402 ], [ -61.30699, -38.97429 ], [ -61.30734, -38.97429 ], [ -61.30734, -38.97375 ], [ -61.30664, -38.97375 ] ] ] } },
{ "type": "Feature", "properties": { "kind": "loss", "year_to": 2024, "area_m2": 44973.27670728162 }, "geometry": { "type": "MultiPolygon", "coordinates": [ [ [ [ -61.3115, -38.97321 ], [ -61.3115, -38.97294 ], [ -61.31115, -38.97294 ], [ -61.31115, -38.97321 ], [ -61.3115, -38.97321 ] ] ], [ [ [ -61.3115, -38.97429 ], [ -61.31046, -38.97429 ], [ -61.31046, -38.97402 ], [ -61.3108, -38.97402 ], [ -61.3108, -38.97348 ], [ -61.31115, -38.97348 ], [ -61.31115, -38.97321 ], [ -61.31046, -38.97321 ], [ -61.31046, -38.97348 ], [ -61.31011, -38.97348 ], [ -61.31011, -38.97321 ], [ -61.30838, -38.97321 ], [ -61.30838, -38.97348 ], [ -61.30803, -38.97348 ], [ -61.30803, -38.97375 ], [ -61.30838, -38.97375 ], [ -61.30838, -38.97402 ], [ -61.30872, -38.97402 ], [ -61.30872, -38.97348 ], [ -61.30907, -38.97348 ], [ -61.30907, -38.97375 ], [ -61.30942, -38.97375 ], [ -61.30942, -38.97402 ], [ -61.30976, -38.97402 ], [ -61.30976, -38.97429 ], [ -61.30907, -38.97429 ], [ -61.30907, -38.97456 ], [ -61.30872, -38.97456 ], [ -61.30872, -38.97483 ], [ -61.30803, -38.97483 ], [ -61.30803, -38.9751 ], [ -61.30838, -38.9751 ], [ -61.30838, -38.97537 ], [ -61.30907, -38.97537 ], [ -61.30907, -38.97483 ], [ -61.30942, -38.97483 ], [ -61.30942, -38.97456 ], [ -61.30976, -38.97456 ], [ -61.30976, -38.9751 ], [ -61.31046, -38.9751 ], [ -61.31046, -38.97456 ], [ -61.3115, -38.97456 ], [ -61.3115, -38.97429 ] ] ], [ [ [ -61.31254, -38.97537 ], [ -61.31254, -38.9751 ], [ -61.31288, -38.9751 ], [ -61.31288, -38.97483 ], [ -61.31254, -38.97483 ], [ -61.31254, -38.97456 ], [ -61.31219, -38.97456 ], [ -61.31219, -38.97483 ], [ -61.31184, -38.97483 ], [ -61.31184, -38.97456 ], [ -61.3115, -38.97456 ], [ -61.3115, -38.9751 ], [ -61.31184, -38.9751 ], [ -61.31184, -38.97537 ], [ -61.31254, -38.97537 ] ] ], [ [ [ -61.3115, -38.97537 ], [ -61.3115, -38.97563 ], [ -61.31184, -38.97563 ], [ -61.31184, -38.97537 ], [ -61.3115, -38.97537 ] ] ], [ [ [ -61.30768, -38.97375 ], [ -61.30768, -38.97402 ], [ -61.30803, -38.97402 ], [ -61.30803, -38.97375 ], [ -61.30768, -38.97375 ] ] ] ] } },
{ "type": "Feature", "properties": { "kind": "loss", "year_to": 2024, "area_m2": 2698.3572410211 }, "geometry": { "type": "MultiPolygon", "coordinates": [ [ [ [ -61.31566, -38.97537 ], [ -61.31566, -38.9751 ], [ -61.31496, -38.9751 ], [ -61.31496, -38.97537 ], [ -61.31566, -38.97537 ] ] ], [ [ [ -61.31462, -38.97537 ], [ -61.31462, -38.97563 ], [ -61.31496, -38.97563 ], [ -61.31496, -38.97537 ], [ -61.31462, -38.97537 ] ] ] ] } },
{ "type": "Feature", "properties": { "kind": "loss", "year_to": 2024, "area_m2": 2698.2932094708108 }, "geometry": { "type": "Polygon", "coordinates": [ [ [ -61.3115, -38.97671 ], [ -61.3115, -38.97698 ], [ -61.31115, -38.97698 ], [ -61.31115, -38.97725 ], [ -61.31184, -38.97725 ], [ -61.31184, -38.97671 ], [ -61.3115, -38.97671 ] ] ] } },
{ "type": "Feature", "properties": { "kind": "loss", "year_to": 2024, "area_m2": 2698.2830989924219 }, "geometry": { "type": "Polygon", "coordinates": [ [ [ -61.31254, -38.97698 ], [ -61.31254, -38.97725 ], [ -61.31219, -38.97725 ], [ -61.31219, -38.97752 ], [ -61.31288, -38.97752 ], [ -61.31288, -38.97698 ], [ -61.31254, -38.97698 ] ] ] } },
{ "type": "Feature", "properties": { "kind": "loss", "year_to": 2024, "area_m2": 3597.692824143186 }, "geometry": { "type": "Polygon", "coordinates": [ [ [ -61.31704, -38.97725 ], [ -61.31704, -38.97752 ], [ -61.3167, -38.97752 ], [ -61.3167, -38.97806 ], [ -61.31704, -38.97806 ], [ -61.31704, -38.97779 ], [ -61.31739, -38.97779 ], [ -61.31739, -38.97725 ], [ -61.31704, -38.97725 ] ] ] } },
{ "type": "Feature", "properties": { "kind": "loss", "year_to": 2024, "area_m2": 7194.5767268417367 }, "geometry": { "type": "Polygon", "coordinates": [ [ [ -61.27371, -38.98534 ], [ -61.27371, -38.98615 ], [ -61.27406, -38.98615 ], [ -61.27406, -38.98588 ], [ -61.27579, -38.98588 ], [ -61.27579, -38.98561 ], [ -61.27406, -38.98561 ], [ -61.27406, -38.98534 ], [ -61.27371, -38.98534 ] ] ] } },
{ "type": "Feature", "properties": { "kind": "loss", "year_to": 2024, "area_m2": 3597.1636400210914 }, "geometry": { "type": "Polygon", "coordinates": [ [ [ -61.23211, -38.98804 ], [ -61.23211, -38.98831 ], [ -61.23246, -38.98831 ], [ -61.23246, -38.98858 ], [ -61.23281, -38.98858 ], [ -61.23281, -38.98831 ], [ -61.23315, -38.98831 ], [ -61.23315, -38.98804 ], [ -61.23211, -38.98804 ] ] ] } },
{ "type": "Feature", "properties": { "kind": "loss", "year_to": 2025, "area_m2": 3597.3962268392215 }, "geometry": { "type": "Polygon", "coordinates": [ [ [ -61.34998, -38.98319 ], [ -61.34998, -38.98346 ], [ -61.34963, -38.98346 ], [ -61.34963, -38.984 ], [ -61.34998, -38.984 ], [ -61.34998, -38.98373 ], [ -61.35032, -38.98373 ], [ -61.35032, -38.98319 ], [ -61.34998, -38.98319 ] ] ] } },
{ "type": "Feature", "properties": { "kind": "loss", "year_to": 2026, "area_m2": 3597.638900324554 }, "geometry": { "type": "MultiPolygon", "coordinates": [ [ [ [ -61.34374, -38.9786 ], [ -61.34374, -38.97833 ], [ -61.34339, -38.97833 ], [ -61.34339, -38.9786 ], [ -61.34374, -38.9786 ] ] ], [ [ [ -61.3427, -38.9786 ], [ -61.3427, -38.97914 ], [ -61.34304, -38.97914 ], [ -61.34304, -38.97887 ], [ -61.34339, -38.97887 ], [ -61.34339, -38.9786 ], [ -61.3427, -38.9786 ] ] ] ] } },
{ "type": "Feature", "properties": { "kind": "loss", "year_to": 2026, "area_m2": 20686.376492860953 }, "geometry": { "type": "Polygon", "coordinates": [ [ [ -61.23419, -38.97833 ], [ -61.23419, -38.9786 ], [ -61.23281, -38.9786 ], [ -61.23281, -38.97914 ], [ -61.23315, -38.97914 ], [ -61.23315, -38.97887 ], [ -61.2335, -38.97887 ], [ -61.2335, -38.97968 ], [ -61.23419, -38.97968 ], [ -61.23419, -38.97941 ], [ -61.23489, -38.97941 ], [ -61.23489, -38.97887 ], [ -61.23523, -38.97887 ], [ -61.23523, -38.9786 ], [ -61.23593, -38.9786 ], [ -61.23593, -38.97833 ], [ -61.23419, -38.97833 ] ] ] } },
{ "type": "Feature", "properties": { "kind": "loss", "year_to": 2026, "area_m2": 9893.3687926556795 }, "geometry": { "type": "Polygon", "coordinates": [ [ [ -61.2283, -38.97914 ], [ -61.2283, -38.97941 ], [ -61.22795, -38.97941 ], [ -61.22795, -38.98022 ], [ -61.22934, -38.98022 ], [ -61.22934, -38.97995 ], [ -61.22865, -38.97995 ], [ -61.22865, -38.97968 ], [ -61.22899, -38.97968 ], [ -61.22899, -38.97914 ], [ -61.2283, -38.97914 ] ] ] } },
{ "type": "Feature", "properties": { "kind": "loss", "year_to": 2026, "area_m2": 2698.1786202433509 }, "geometry": { "type": "Polygon", "coordinates": [ [ [ -61.34235, -38.97968 ], [ -61.34235, -38.98049 ], [ -61.3427, -38.98049 ], [ -61.3427, -38.97968 ], [ -61.34235, -38.97968 ] ] ] } },
{ "type": "Feature", "properties": { "kind": "loss", "year_to": 2026, "area_m2": 2698.1685090478836 }, "geometry": { "type": "MultiPolygon", "coordinates": [ [ [ [ -61.23073, -38.97995 ], [ -61.23038, -38.97995 ], [ -61.23038, -38.98049 ], [ -61.23073, -38.98049 ], [ -61.23073, -38.97995 ] ] ], [ [ [ -61.23073, -38.98076 ], [ -61.23107, -38.98076 ], [ -61.23107, -38.98049 ], [ -61.23073, -38.98049 ], [ -61.23073, -38.98076 ] ] ] ] } },
{ "type": "Feature", "properties": { "kind": "loss", "year_to": 2026, "area_m2": 2698.0876174483687 }, "geometry": { "type": "Polygon", "coordinates": [ [ [ -61.34304, -38.98211 ], [ -61.34304, -38.98292 ], [ -61.34339, -38.98292 ], [ -61.34339, -38.98211 ], [ -61.34304, -38.98211 ] ] ] } },
{ "type": "Feature", "properties": { "kind": "loss", "year_to": 2026, "area_m2": 5396.1651232334052 }, "geometry": { "type": "Polygon", "coordinates": [ [ [ -61.34131, -38.98211 ], [ -61.34131, -38.98292 ], [ -61.3427, -38.98292 ], [ -61.3427, -38.98265 ], [ -61.34166, -38.98265 ], [ -61.34166, -38.98211 ], [ -61.34131, -38.98211 ] ] ] } },
{ "type": "Feature", "properties": { "kind": "loss", "year_to": 2026, "area_m2": 5396.1111934522014 }, "geometry": { "type": "Polygon", "coordinates": [ [ [ -61.22691, -38.98292 ], [ -61.22691, -38.98319 ], [ -61.22622, -38.98319 ], [ -61.22622, -38.98346 ], [ -61.22587, -38.98346 ], [ -61.22587, -38.98373 ], [ -61.22657, -38.98373 ], [ -61.22657, -38.98346 ], [ -61.22726, -38.98346 ], [ -61.22726, -38.98292 ], [ -61.22691, -38.98292 ] ] ] } },
{ "type": "Feature", "properties": { "kind": "loss", "year_to": 2026, "area_m2": 2697.9966098617106 }, "geometry": { "type": "Polygon", "coordinates": [ [ [ -61.35067, -38.9848 ], [ -61.35067, -38.98507 ], [ -61.35171, -38.98507 ], [ -61.35171, -38.9848 ], [ -61.35067, -38.9848 ] ] ] } },
{ "type": "Feature", "properties": { "kind": "loss", "year_to": 2026, "area_m2": 23382.795707217847 }, "geometry": { "type": "Polygon", "coordinates": [ [ [ -61.22622, -38.98534 ], [ -61.22691, -38.98534 ], [ -61.22691, -38.98454 ], [ -61.22657, -38.98454 ], [ -61.22657, -38.98427 ], [ -61.22587, -38.98427 ], [ -61.22587, -38.984 ], [ -61.22553, -38.984 ], [ -61.22553, -38.98373 ], [ -61.22483, -38.98373 ], [ -61.22483, -38.98346 ], [ -61.22449, -38.98346 ], [ -61.22449, -38.98373 ], [ -61.22414, -38.98373 ], [ -61.22414, -38.984 ], [ -61.22379, -38.984 ], [ -61.22379, -38.98427 ], [ -61.22553, -38.98427 ], [ -61.22553, -38.98454 ], [ -61.22518, -38.98454 ], [ -61.22518, -38.98534 ], [ -61.22553, -38.98534 ], [ -61.22553, -38.98507 ], [ -61.22622, -38.98507 ], [ -61.22622, -38.98534 ] ], [ [ -61.22622, -38.9848 ], [ -61.22657, -38.9848 ], [ -61.22657, -38.98507 ], [ -61.22622, -38.98507 ], [ -61.22622, -38.9848 ] ] ] } },
{ "type": "Feature", "properties": { "kind": "loss", "year_to": 2026, "area_m2": 3597.2782510667253 }, "geometry": { "type": "MultiPolygon", "coordinates": [ [ [ [ -61.22587, -38.98588 ], [ -61.22622, -38.98588 ], [ -61.22622, -38.98561 ], [ -61.22553, -38.98561 ], [ -61.22553, -38.98615 ], [ -61.22587, -38.98615 ], [ -61.22587, -38.98588 ] ] ], [ [ [ -61.22587, -38.98642 ], [ -61.22622, -38.98642 ], [ -61.22622, -38.98615 ], [ -61.22587, -38.98615 ], [ -61.22587, -38.98642 ] ] ] ] } },
{ "type": "Feature", "properties": { "kind": "loss", "year_to": 2026, "area_m2": 3597.2479133440252 }, "geometry": { "type": "Polygon", "coordinates": [ [ [ -61.34304, -38.98642 ], [ -61.34304, -38.98669 ], [ -61.34443, -38.98669 ], [ -61.34443, -38.98642 ], [ -61.34304, -38.98642 ] ] ] } },
{ "type": "Feature", "properties": { "kind": "loss", "year_to": 2026, "area_m2": 2697.9291933367413 }, "geometry": { "type": "Polygon", "coordinates": [ [ [ -61.316, -38.98642 ], [ -61.316, -38.98696 ], [ -61.3167, -38.98696 ], [ -61.3167, -38.98669 ], [ -61.31635, -38.98669 ], [ -61.31635, -38.98642 ], [ -61.316, -38.98642 ] ] ] } },
{ "type": "Feature", "properties": { "kind": "loss", "year_to": 2026, "area_m2": 347145.15933428635 }, "geometry": { "type": "MultiPolygon", "coordinates": [ [ [ [ -61.22969, -38.98804 ], [ -61.22969, -38.98858 ], [ -61.23038, -38.98858 ], [ -61.23038, -38.98831 ], [ -61.23073, -38.98831 ], [ -61.23073, -38.98804 ], [ -61.23142, -38.98804 ], [ -61.23142, -38.98777 ], [ -61.23177, -38.98777 ], [ -61.23177, -38.98804 ], [ -61.23281, -38.98804 ], [ -61.23281, -38.98777 ], [ -61.23385, -38.98777 ], [ -61.23385, -38.9875 ], [ -61.23454, -38.9875 ], [ -61.23454, -38.98561 ], [ -61.23523, -38.98561 ], [ -61.23523, -38.98507 ], [ -61.23489, -38.98507 ], [ -61.23489, -38.9848 ], [ -61.23454, -38.9848 ], [ -61.23454, -38.98427 ], [ -61.23489, -38.98427 ], [ -61.23489, -38.98373 ], [ -61.23558, -38.98373 ], [ -61.23558, -38.98346 ], [ -61.23523, -38.98346 ], [ -61.23523, -38.98292 ], [ -61.23454, -38.98292 ], [ -61.23454, -38.98238 ], [ -61.23489, -38.98238 ], [ -61.23489, -38.98211 ], [ -61.23419, -38.98211 ], [ -61.23419, -38.98157 ], [ -61.23454, -38.98157 ], [ -61.23454, -38.9813 ], [ -61.23385, -38.9813 ], [ -61.23385, -38.98103 ], [ -61.23419, -38.98103 ], [ -61.23419, -38.98076 ], [ -61.23454, -38.98076 ], [ -61.23454, -38.98049 ], [ -61.23419, -38.98049 ], [ -61.23419, -38.98022 ], [ -61.23385, -38.98022 ], [ -61.23385, -38.97995 ], [ -61.2335, -38.97995 ], [ -61.2335, -38.98022 ], [ -61.23246, -38.98022 ], [ -61.23246, -38.98049 ], [ -61.23211, -38.98049 ], [ -61.23211, -38.98076 ], [ -61.23177, -38.98076 ], [ -61.23177, -38.9813 ], [ -61.23142, -38.9813 ], [ -61.23142, -38.98157 ], [ -61.23073, -38.98157 ], [ -61.23073, -38.9813 ], [ -61.23003, -38.9813 ], [ -61.23003, -38.98103 ], [ -61.22969, -38.98103 ], [ -61.22969, -38.98049 ], [ -61.22865, -38.98049 ], [ -61.22865, -38.98076 ], [ -61.2283, -38.98076 ], [ -61.2283, -38.98103 ], [ -61.22899, -38.98103 ], [ -61.22899, -38.98157 ], [ -61.22865, -38.98157 ], [ -61.22865, -38.98184 ], [ -61.2283, -38.98184 ], [ -61.2283, -38.98238 ], [ -61.22899, -38.98238 ], [ -61.22899, -38.98292 ], [ -61.22934, -38.98292 ], [ -61.22934, -38.98265 ], [ -61.22969, -38.98265 ], [ -61.22969, -38.98238 ], [ -61.23003, -38.98238 ], [ -61.23003, -38.98265 ], [ -61.23038, -38.98265 ], [ -61.23038, -38.98292 ], [ -61.23142, -38.98292 ], [ -61.23142, -38.98319 ], [ -61.22969, -38.98319 ], [ -61.22969, -38.98346 ], [ -61.23003, -38.98346 ], [ -61.23003, -38.98373 ], [ -61.23107, -38.98373 ], [ -61.23107, -38.984 ], [ -61.23073, -38.984 ], [ -61.23073, -38.98427 ], [ -61.23003, -38.98427 ], [ -61.23003, -38.98454 ], [ -61.23038, -38.98454 ], [ -61.23038, -38.98561 ], [ -61.23073, -38.98561 ], [ -61.23073, -38.98534 ], [ -61.23107, -38.98534 ], [ -61.23107, -38.98507 ], [ -61.23142, -38.98507 ], [ -61.23142, -38.98534 ], [ -61.23177, -38.98534 ], [ -61.23177, -38.9848 ], [ -61.23211, -38.9848 ], [ -61.23211, -38.98561 ], [ -61.23246, -38.98561 ], [ -61.23246, -38.98588 ], [ -61.23211, -38.98588 ], [ -61.23211, -38.98615 ], [ -61.23177, -38.98615 ], [ -61.23177, -38.98561 ], [ -61.23142, -38.98561 ], [ -61.23142, -38.98588 ], [ -61.23107, -38.98588 ], [ -61.23107, -38.98615 ], [ -61.23073, -38.98615 ], [ -61.23073, -38.98642 ], [ -61.23038, -38.98642 ], [ -61.23038, -38.98588 ], [ -61.23003, -38.98588 ], [ -61.23003, -38.98507 ], [ -61.22969, -38.98507 ], [ -61.22969, -38.98561 ], [ -61.22865, -38.98561 ], [ -61.22865, -38.98534 ], [ -61.2283, -38.98534 ], [ -61.2283, -38.98561 ], [ -61.22795, -38.98561 ], [ -61.22795, -38.98615 ], [ -61.2283, -38.98615 ], [ -61.2283, -38.98696 ], [ -61.22865, -38.98696 ], [ -61.22865, -38.98669 ], [ -61.22899, -38.98669 ], [ -61.22899, -38.98696 ], [ -61.22934, -38.98696 ], [ -61.22934, -38.98669 ], [ -61.23003, -38.98669 ], [ -61.23003, -38.98777 ], [ -61.22969, -38.98777 ], [ -61.22969, -38.98723 ], [ -61.22934, -38.98723 ], [ -61.22934, -38.98777 ], [ -61.22899, -38.98777 ], [ -61.22899, -38.98804 ], [ -61.22969, -38.98804 ] ], [ [ -61.23003, -38.98157 ], [ -61.22934, -38.98157 ], [ -61.22934, -38.9813 ], [ -61.23003, -38.9813 ], [ -61.23003, -38.98157 ] ], [ [ -61.23315, -38.98184 ], [ -61.23281, -38.98184 ], [ -61.23281, -38.98157 ], [ -61.23315, -38.98157 ], [ -61.23315, -38.98184 ] ], [ [ -61.23246, -38.984 ], [ -61.23177, -38.984 ], [ -61.23177, -38.98373 ], [ -61.23246, -38.98373 ], [ -61.23246, -38.984 ] ], [ [ -61.23419, -38.98561 ], [ -61.2335, -38.98561 ], [ -61.2335, -38.98534 ], [ -61.23419, -38.98534 ], [ -61.23419, -38.98561 ] ], [ [ -61.23281, -38.98669 ], [ -61.23246, -38.98669 ], [ -61.23246, -38.98696 ], [ -61.23211, -38.98696 ], [ -61.23211, -38.98642 ], [ -61.23281, -38.98642 ], [ -61.23281, -38.98669 ] ], [ [ -61.23073, -38.98696 ], [ -61.23038, -38.98696 ], [ -61.23038, -38.98669 ], [ -61.23073, -38.98669 ], [ -61.23073, -38.98696 ] ] ], [ [ [ -61.22795, -38.98777 ], [ -61.22795, -38.98831 ], [ -61.22865, -38.98831 ], [ -61.22865, -38.98858 ], [ -61.22899, -38.98858 ], [ -61.22899, -38.98804 ], [ -61.2283, -38.98804 ], [ -61.2283, -38.98777 ], [ -61.22795, -38.98777 ] ] ], [ [ [ -61.22865, -38.98777 ], [ -61.22865, -38.9875 ], [ -61.2283, -38.9875 ], [ -61.2283, -38.98777 ], [ -61.22865, -38.98777 ] ] ] ] } },
{ "type": "Feature", "properties": { "kind": "loss", "year_to": 2026, "area_m2": 2697.8381770096194 }, "geometry": { "type": "Polygon", "coordinates": [ [ [ -61.23003, -38.98885 ], [ -61.23003, -38.98912 ], [ -61.22969, -38.98912 ], [ -61.22969, -38.98939 ], [ -61.23038, -38.98939 ], [ -61.23038, -38.98885 ], [ -61.23003, -38.98885 ] ] ] } }
]
}
